{"type": "FeatureCollection", "features": [{"type": "Feature", "geometry": {"type": "MultiPolygon", "coordinates": [[[[-75.00804828099459, 45.13357034831954], [-74.881, 45.189], [-71.71, 45.171], [-71.571, 45.456], [-70.993, 45.547], [-70.69543950075982, 45.865592262275484], [-70.79, 45.0], [-70.34, 44.11], [-69.47362068965518, 43.376909814323604], [-69.557, 43.333], [-69.738, 43.3], [-69.962, 43.13], [-70.094, 42.939], [-70.041, 42.768], [-69.908, 42.491], [-69.795, 42.31], [-69.595, 42.133], [-69.483, 42.001], [-69.443, 41.721], [-69.548, 41.498], [-69.488, 41.199], [-69.663, 41.018], [-69.946, 40.916], [-70.34, 40.942], [-70.838, 40.931], [-71.244, 40.859], [-71.608, 40.77], [-72.156, 40.586], [-72.567, 40.462], [-72.893, 40.33], [-73.2, 40.303], [-73.648, 40.236], [-73.751, 39.803], [-73.839, 39.533], [-74.085, 39.198], [-74.372, 38.982], [-74.504, 38.814], [-74.716, 38.67], [-74.701, 38.442], [-74.762, 38.239], [-75.086, 37.666], [-75.263, 37.548], [-75.356, 37.334], [-75.645, 36.894], [-75.371, 36.199], [-75.12, 35.649], [-75.166, 35.243], [-75.279, 34.984], [-75.429, 34.931], [-75.726, 34.857], [-76.265, 34.375], [-76.54, 34.248], [-76.776, 34.354], [-76.936, 34.358], [-77.521, 34.032], [-77.684, 33.615], [-77.95, 33.516], [-78.163, 33.577], [-78.569, 33.483], [-78.808, 33.309], [-78.931, 32.928], [-79.294, 32.69], [-79.725, 32.427], [-80.061, 32.203], [-80.21, 32.07], [-80.436, 31.966], [-80.764, 31.633], [-81.09, 30.74], [-80.989, 30.128], [-80.765, 29.498], [-80.349, 28.83], [-80.197, 28.552], [-80.271, 28.232], [-79.788, 27.148], [-79.7, 26.777], [-79.766, 26.228], [-79.812, 25.576], [-79.965, 25.158], [-80.143, 24.859], [-80.331, 24.705], [-80.635, 24.487], [-81.054, 24.361], [-81.782, 24.208], [-82.816, 24.169], [-83.288, 24.221], [-83.28, 24.513], [-83.238, 24.798], [-83.163, 25.012], [-82.313, 25.017], [-82.368, 25.134], [-82.51, 25.288], [-82.632, 25.453], [-81.934, 25.61], [-82.143, 26.09], [-82.324, 26.171], [-82.535, 26.48], [-82.719, 26.892], [-83.105, 27.532], [-83.07, 27.615], [-83.183, 27.781], [-83.185, 28.105], [-83.156, 28.373], [-83.014, 28.465], [-82.99, 28.551], [-83.026, 28.753], [-83.273, 28.827], [-83.421, 29.093], [-83.625, 29.29], [-83.895, 29.642], [-84.073, 29.73], [-84.171, 29.626], [-84.467, 29.438], [-85.018, 29.246], [-85.336, 29.335], [-85.675, 29.436], [-85.767, 29.696], [-85.985, 29.876], [-86.462, 30.068], [-87.771, 29.878], [-88.406, 29.863], [-88.432, 29.714], [-88.695, 29.394], [-88.581, 29.249], [-88.619, 29.022], [-88.937, 28.691], [-89.175, 28.63], [-89.399, 28.577], [-89.712, 28.693], [-89.828, 28.916], [-90.102, 28.755], [-90.36305886112355, 28.728774908928226], [-89.28, 30.68], [-89.54, 32.26], [-90.31, 33.34], [-93.45, 34.14], [-94.24, 35.38], [-92.8, 37.17], [-87.74, 38.45], [-83.73, 37.76], [-81.5, 37.74], [-79.37, 38.45], [-77.14, 40.69], [-75.5, 43.02], [-75.00804828099459, 45.13357034831954]]]]}, "properties": {"DN": 2, "VALID": "202409261200", "EXPIRE": "202409271200", "ISSUE": "202409260600", "LABEL": "TSTM", "LABEL2": "General Thunderstorms Risk", "stroke": "#55BB55", "fill": "#C1E9C1"}}, {"type": "Feature", "geometry": {"type": "MultiPolygon", "coordinates": [[[[-75.65432660467226, 34.87485801769108], [-75.726, 34.857], [-76.265, 34.375], [-76.54, 34.248], [-76.776, 34.354], [-76.936, 34.358], [-77.521, 34.032], [-77.684, 33.615], [-77.95, 33.516], [-78.163, 33.577], [-78.569, 33.483], [-78.808, 33.309], [-78.931, 32.928], [-79.294, 32.69], [-79.725, 32.427], [-80.061, 32.203], [-80.21, 32.07], [-80.436, 31.966], [-80.764, 31.633], [-81.09, 30.74], [-80.989, 30.128], [-80.765, 29.498], [-80.349, 28.83], [-80.197, 28.552], [-80.271, 28.232], [-79.788, 27.148], [-79.7, 26.777], [-79.766, 26.228], [-79.812, 25.576], [-79.965, 25.158], [-80.143, 24.859], [-80.331, 24.705], [-80.635, 24.487], [-81.054, 24.361], [-81.782, 24.208], [-82.816, 24.169], [-83.288, 24.221], [-83.28, 24.513], [-83.238, 24.798], [-83.163, 25.012], [-82.313, 25.017], [-82.368, 25.134], [-82.51, 25.288], [-82.632, 25.453], [-81.934, 25.61], [-82.143, 26.09], [-82.324, 26.171], [-82.535, 26.48], [-82.719, 26.892], [-83.105, 27.532], [-83.07, 27.615], [-83.183, 27.781], [-83.185, 28.105], [-83.156, 28.373], [-83.014, 28.465], [-82.99, 28.551], [-83.026, 28.753], [-83.273, 28.827], [-83.421, 29.093], [-83.625, 29.29], [-83.895, 29.642], [-84.073, 29.73], [-84.171, 29.626], [-84.467, 29.438], [-85.018, 29.246], [-85.336, 29.335], [-85.50903538580778, 29.38655331553565], [-85.50903538580778, 29.386553315535654], [-84.79, 32.29], [-84.24, 34.12], [-82.86, 35.68], [-81.67, 35.99], [-79.55, 35.95], [-77.64, 35.72], [-75.65432660467226, 34.87485801769108]]]]}, "properties": {"DN": 3, "VALID": "202409261200", "EXPIRE": "202409271200", "ISSUE": "202409260600", "LABEL": "MRGL", "LABEL2": "Marginal Risk", "stroke": "#005500", "fill": "#66A366"}}, {"type": "Feature", "geometry": {"type": "MultiPolygon", "coordinates": [[[[-77.07141864716637, 34.28253593337396], [-77.521, 34.032], [-77.684, 33.615], [-77.95, 33.516], [-78.163, 33.577], [-78.569, 33.483], [-78.808, 33.309], [-78.931, 32.928], [-79.294, 32.69], [-79.725, 32.427], [-80.061, 32.203], [-80.21, 32.07], [-80.436, 31.966], [-80.764, 31.633], [-81.09, 30.74], [-80.989, 30.128], [-80.765, 29.498], [-80.349, 28.83], [-80.197, 28.552], [-80.271, 28.232], [-80.04910577091738, 27.73400135750402], [-80.72, 27.26], [-81.23, 25.69], [-81.38, 25.51], [-81.9433659438258, 25.631510301609485], [-82.143, 26.09], [-82.324, 26.171], [-82.535, 26.48], [-82.719, 26.892], [-83.105, 27.532], [-83.07, 27.615], [-83.183, 27.781], [-83.185, 28.105], [-83.156, 28.373], [-83.014, 28.465], [-82.99, 28.551], [-83.026, 28.753], [-83.273, 28.827], [-83.421, 29.093], [-83.625, 29.29], [-83.895, 29.642], [-84.073, 29.73], [-84.07625856456364, 29.726541931483474], [-84.07625856456364, 29.726541931483478], [-83.54, 31.29], [-82.22, 34.44], [-80.95, 34.94], [-78.6, 34.86], [-77.07141864716637, 34.28253593337396]]]]}, "properties": {"DN": 4, "VALID": "202409261200", "EXPIRE": "202409271200", "ISSUE": "202409260600", "LABEL": "SLGT", "LABEL2": "Slight Risk", "stroke": "#DDAA00", "fill": "#FFE066"}}, {"type": "Feature", "geometry": {"type": "MultiPolygon", "coordinates": [[[[-79.10860880853744, 32.81155124949886], [-79.294, 32.69], [-79.725, 32.427], [-80.061, 32.203], [-80.21, 32.07], [-80.436, 31.966], [-80.764, 31.633], [-81.09, 30.74], [-80.989, 30.128], [-80.96275801749272, 30.054194424198254], [-81.91, 30.18], [-82.16, 30.56], [-82.58, 31.58], [-81.63, 32.88], [-80.72, 33.18], [-80.07, 33.3], [-79.10860880853744, 32.81155124949886]]]]}, "properties": {"DN": 5, "VALID": "202409261200", "EXPIRE": "202409271200", "ISSUE": "202409260600", "LABEL": "ENH", "LABEL2": "Enhanced Risk", "stroke": "#FF6600", "fill": "#FFA366"}}]}