{"type": "FeatureCollection", "features": [{"type": "Feature", "geometry": {"type": "MultiPolygon", "coordinates": [[[[-82.12401346970802, 44.95097846986653], [-81.965, 44.144], [-81.902, 43.586], [-82.087, 43.18], [-82.073, 43.025], [-82.196, 42.879], [-82.304, 42.546], [-82.518, 42.326], [-82.69, 42.224], [-82.863, 42.181], [-82.903, 42.063], [-82.863, 41.98], [-82.808, 41.911], [-82.689, 41.863], [-82.459, 41.878], [-81.764, 42.178], [-81.262, 42.421], [-80.316, 42.6], [-79.514, 42.795], [-79.252, 42.966], [-79.373, 43.553], [-78.632, 43.794], [-77.319, 43.789], [-77.09877377222998, 43.79021003421852], [-77.08, 41.65], [-76.77, 37.9], [-78.01, 34.7], [-80.19, 33.03], [-83.84, 32.11], [-86.52, 31.02], [-86.6967490380631, 30.0339264192269], [-87.771, 29.878], [-88.406, 29.863], [-88.432, 29.714], [-88.695, 29.394], [-88.581, 29.249], [-88.619, 29.022], [-88.937, 28.691], [-89.175, 28.63], [-89.399, 28.577], [-89.712, 28.693], [-89.828, 28.916], [-90.102, 28.755], [-90.54, 28.711], [-90.745, 28.711], [-91.083, 28.732], [-91.315, 28.893], [-91.556, 28.983], [-91.655, 29.121], [-91.742, 29.058], [-92.079, 29.114], [-92.164, 29.181], [-92.629, 29.233], [-93.243, 29.441], [-93.588, 29.43], [-93.777, 29.35], [-93.961, 29.348], [-94.266, 29.222], [-94.502, 29.062], [-94.9, 28.808], [-95.134, 28.597], [-95.489, 28.428], [-96.044, 28.182], [-96.147, 28.055], [-96.427, 27.94], [-96.796, 27.579], [-97.017, 27.081], [-96.876, 26.595], [-96.749, 25.948], [-97.075, 25.799], [-97.23, 25.659], [-97.68, 25.837], [-98.218, 25.934], [-98.509, 26.039], [-99.103, 26.254], [-99.357, 26.519], [-99.489, 26.804], [-99.612, 27.039], [-99.697, 27.291], [-99.724, 27.496], [-99.917, 27.637], [-100.23, 28.008], [-100.41, 28.265], [-100.596, 28.593], [-100.754, 28.844], [-100.911, 29.059], [-101.161, 29.268], [-101.45, 29.518], [-101.616, 29.594], [-101.852, 29.614], [-102.125, 29.651], [-102.3, 29.645], [-102.486, 29.578], [-102.613, 29.283], [-102.733, 29.098], [-102.962, 28.86], [-103.419, 28.868], [-104.191, 29.275], [-104.636, 29.554], [-104.879, 29.863], [-104.926, 30.211], [-105.115, 30.476], [-105.605, 30.822], [-105.92381405113593, 31.080385244057883], [-103.25, 33.19], [-100.39, 36.1], [-98.24, 39.19], [-96.66, 40.86], [-94.44, 41.71], [-93.24, 41.61], [-92.86, 41.18], [-92.63, 40.82], [-92.36, 40.43], [-92.37, 39.69], [-92.5, 39.15], [-92.83, 37.96], [-93.12, 37.1], [-92.59, 36.73], [-91.03, 37.28], [-88.44, 41.57], [-85.28, 43.72], [-83.57, 44.48], [-82.12401346970802, 44.95097846986653]]], [[[-80.14089298892989, 27.94], [-79.788, 27.148], [-79.7, 26.777], [-79.766, 26.228], [-79.812, 25.576], [-79.965, 25.158], [-80.143, 24.859], [-80.331, 24.705], [-80.635, 24.487], [-81.054, 24.361], [-81.782, 24.208], [-82.816, 24.169], [-83.288, 24.221], [-83.28, 24.513], [-83.238, 24.798], [-83.163, 25.012], [-82.313, 25.017], [-82.368, 25.134], [-82.51, 25.288], [-82.632, 25.453], [-81.934, 25.61], [-82.143, 26.09], [-82.324, 26.171], [-82.535, 26.48], [-82.719, 26.892], [-83.105, 27.532], [-83.07, 27.615], [-83.183, 27.781], [-83.18413107687395, 27.964234453580268], [-81.31, 27.94], [-80.14089298892989, 27.94]]]]}, "properties": {"DN": 2, "VALID": "202409241200", "EXPIRE": "202409251200", "ISSUE": "202409240532", "LABEL": "TSTM", "LABEL2": "General Thunderstorms Risk", "stroke": "#55BB55", "fill": "#C1E9C1"}}, {"type": "Feature", "geometry": {"type": "MultiPolygon", "coordinates": [[[[-88.52, 36.56], [-86.99, 38.38], [-86.6, 41.16], [-85.77, 41.51], [-82.87, 40.81], [-80.68, 40.5], [-79.4, 39.41], [-79.37, 37.1], [-79.56, 35.45], [-79.98, 34.73], [-80.56, 34.25], [-81.5, 34.28], [-82.72, 34.5], [-85.11, 34.55], [-86.73, 34.36], [-88.9, 33.84], [-89.47, 34.1], [-89.48, 34.72], [-88.52, 36.56]]], [[[-99.2, 33.82], [-99.5, 35.62], [-99.24, 36.52], [-98.08, 36.65], [-97.13, 36.04], [-96.55, 34.12], [-97.0, 33.21], [-98.25, 33.1], [-99.2, 33.82]]]]}, "properties": {"DN": 3, "VALID": "202409241200", "EXPIRE": "202409251200", "ISSUE": "202409240532", "LABEL": "MRGL", "LABEL2": "Marginal Risk", "stroke": "#005500", "fill": "#66A366"}}, {"type": "Feature", "geometry": {"type": "MultiPolygon", "coordinates": [[[[-85.43, 36.49], [-86.22, 37.04], [-85.64, 37.94], [-83.48, 38.76], [-81.5, 39.46], [-80.41, 39.07], [-80.76, 38.27], [-81.74, 37.58], [-83.43, 36.84], [-85.43, 36.49]]]]}, "properties": {"DN": 4, "VALID": "202409241200", "EXPIRE": "202409251200", "ISSUE": "202409240532", "LABEL": "SLGT", "LABEL2": "Slight Risk", "stroke": "#DDAA00", "fill": "#FFE066"}}]}