{"type": "FeatureCollection", "features": [{"type": "Feature", "geometry": {"type": "MultiPolygon", "coordinates": [[[[-86.2534978124774, 47.68885869163366], [-85.677, 47.453], [-84.653, 46.989], [-84.444, 46.699], [-84.034, 46.687], [-83.88, 46.326], [-83.814, 46.264], [-83.743, 46.252], [-83.601, 46.229], [-83.414, 46.232], [-83.251, 46.093], [-83.288, 45.851], [-83.292, 45.799], [-82.232, 45.499], [-81.965, 44.144], [-81.902, 43.586], [-82.087, 43.18], [-82.073, 43.025], [-82.196, 42.879], [-82.304, 42.546], [-82.518, 42.326], [-82.69, 42.224], [-82.863, 42.181], [-82.903, 42.063], [-82.863, 41.98], [-82.808, 41.911], [-82.689, 41.863], [-82.459, 41.878], [-81.764, 42.178], [-81.262, 42.421], [-80.56813304565304, 42.55229195013542], [-80.99, 39.48], [-82.92, 36.97], [-84.04, 36.19], [-85.15, 35.85], [-86.77, 35.74], [-92.66, 35.33], [-95.01, 34.61], [-96.41, 33.66], [-98.96, 30.78], [-100.69085956644675, 28.743694627709704], [-100.754, 28.844], [-100.911, 29.059], [-101.161, 29.268], [-101.45, 29.518], [-101.616, 29.594], [-101.852, 29.614], [-102.125, 29.651], [-102.3, 29.645], [-102.486, 29.578], [-102.613, 29.283], [-102.733, 29.098], [-102.962, 28.86], [-103.419, 28.868], [-104.191, 29.275], [-104.636, 29.554], [-104.879, 29.863], [-104.926, 30.211], [-105.115, 30.476], [-105.605, 30.822], [-106.064, 31.194], [-106.13193893129771, 31.226824427480917], [-102.31, 36.15], [-98.91, 40.15], [-94.49, 41.43], [-92.58, 42.01], [-89.4, 44.65], [-86.2534978124774, 47.68885869163366]]], [[[-80.38355051305831, 28.885480150776317], [-80.349, 28.83], [-80.197, 28.552], [-80.271, 28.232], [-79.788, 27.148], [-79.7, 26.777], [-79.766, 26.228], [-79.812, 25.576], [-79.965, 25.158], [-80.143, 24.859], [-80.331, 24.705], [-80.635, 24.487], [-81.054, 24.361], [-81.782, 24.208], [-82.816, 24.169], [-83.288, 24.221], [-83.28, 24.513], [-83.238, 24.798], [-83.163, 25.012], [-82.313, 25.017], [-82.368, 25.134], [-82.51, 25.288], [-82.632, 25.453], [-81.934, 25.61], [-82.143, 26.09], [-82.324, 26.171], [-82.535, 26.48], [-82.719, 26.892], [-83.105, 27.532], [-83.07, 27.615], [-83.09752505201732, 27.65543503216703], [-81.49, 28.14], [-80.38355051305831, 28.885480150776317]]], [[[-105.61, 39.27], [-105.88, 36.94], [-107.86, 37.11], [-108.65, 38.07], [-107.67, 39.78], [-106.77, 40.63], [-105.72, 40.59], [-105.61, 39.27]]]]}, "properties": {"DN": 2, "VALID": "202409221200", "EXPIRE": "202409231200", "ISSUE": "202409210513", "LABEL": "TSTM", "LABEL2": "General Thunderstorms Risk", "stroke": "#55BB55", "fill": "#C1E9C1"}}, {"type": "Feature", "geometry": {"type": "MultiPolygon", "coordinates": [[[[-101.34952729939626, 29.43108589913171], [-101.45, 29.518], [-101.616, 29.594], [-101.852, 29.614], [-102.125, 29.651], [-102.3, 29.645], [-102.486, 29.578], [-102.613, 29.283], [-102.733, 29.098], [-102.962, 28.86], [-103.419, 28.868], [-103.880026894332, 29.111054334187983], [-102.72, 31.56], [-102.2, 33.53], [-101.0, 34.64], [-99.28, 35.87], [-96.63, 37.55], [-94.83, 38.53], [-93.25, 38.88], [-91.98, 38.9], [-90.69, 38.47], [-90.2, 37.8], [-90.47, 37.04], [-91.16, 36.91], [-92.56, 36.72], [-94.6, 36.16], [-96.05, 35.26], [-97.25, 34.17], [-100.41, 30.74], [-101.34952729939626, 29.43108589913171]]]]}, "properties": {"DN": 3, "VALID": "202409221200", "EXPIRE": "202409231200", "ISSUE": "202409210513", "LABEL": "MRGL", "LABEL2": "Marginal Risk", "stroke": "#005500", "fill": "#66A366"}}]}