{"type": "FeatureCollection", "features": [{"type": "Feature", "geometry": {"type": "MultiPolygon", "coordinates": [[[[-81.90320638820639, 43.596685152685154], [-81.902, 43.586], [-82.087, 43.18], [-82.073, 43.025], [-82.196, 42.879], [-82.304, 42.546], [-82.518, 42.326], [-82.69, 42.224], [-82.863, 42.181], [-82.903, 42.063], [-82.863, 41.98], [-82.808, 41.911], [-82.689, 41.863], [-82.459, 41.878], [-81.764, 42.178], [-81.262, 42.421], [-80.316, 42.6], [-79.514, 42.795], [-79.252, 42.966], [-79.373, 43.553], [-78.632, 43.794], [-77.319, 43.789], [-77.15393804678484, 43.78990693380887], [-77.32, 41.5], [-78.91, 36.13], [-80.8, 33.8], [-82.33, 33.43], [-87.4, 33.07], [-91.34, 32.57], [-92.91, 30.98], [-93.0227416732669, 29.366384801367293], [-93.243, 29.441], [-93.588, 29.43], [-93.777, 29.35], [-93.961, 29.348], [-94.266, 29.222], [-94.502, 29.062], [-94.9, 28.808], [-95.134, 28.597], [-95.489, 28.428], [-96.044, 28.182], [-96.147, 28.055], [-96.427, 27.94], [-96.796, 27.579], [-97.017, 27.081], [-96.876, 26.595], [-96.749, 25.948], [-97.075, 25.799], [-97.23, 25.659], [-97.68, 25.837], [-98.218, 25.934], [-98.509, 26.039], [-99.103, 26.254], [-99.357, 26.519], [-99.489, 26.804], [-99.612, 27.039], [-99.697, 27.291], [-99.724, 27.496], [-99.917, 27.637], [-100.23, 28.008], [-100.41, 28.265], [-100.596, 28.593], [-100.754, 28.844], [-100.911, 29.059], [-101.161, 29.268], [-101.45, 29.518], [-101.616, 29.594], [-101.852, 29.614], [-102.125, 29.651], [-102.3, 29.645], [-102.486, 29.578], [-102.613, 29.283], [-102.733, 29.098], [-102.962, 28.86], [-103.419, 28.868], [-104.191, 29.275], [-104.636, 29.554], [-104.879, 29.863], [-104.926, 30.211], [-105.115, 30.476], [-105.605, 30.822], [-106.064, 31.194], [-106.509, 31.409], [-106.568, 31.573], [-107.183, 31.602], [-107.745, 31.62], [-108.002, 31.623], [-108.044, 31.186], [-108.53799431604912, 31.156360341037054], [-107.91, 34.69], [-106.73, 36.46], [-107.65, 37.57], [-106.44, 39.0], [-104.54, 38.62], [-103.55, 37.36], [-103.17, 35.38], [-102.57, 34.64], [-99.88, 34.61], [-95.15, 35.25], [-91.32, 40.01], [-84.79, 42.31], [-81.90320638820639, 43.596685152685154]]]]}, "properties": {"DN": 2, "VALID": "202409231200", "EXPIRE": "202409241200", "ISSUE": "202409210649", "LABEL": "TSTM", "LABEL2": "General Thunderstorms Risk", "stroke": "#55BB55", "fill": "#C1E9C1"}}, {"type": "Feature", "geometry": {"type": "MultiPolygon", "coordinates": [[[[-84.67, 37.13], [-86.28, 36.63], [-90.63, 35.56], [-91.54, 35.97], [-91.08, 36.85], [-89.52, 37.63], [-86.36, 38.26], [-85.07, 38.31], [-84.32, 37.61], [-84.67, 37.13]]]]}, "properties": {"DN": 3, "VALID": "202409231200", "EXPIRE": "202409241200", "ISSUE": "202409210649", "LABEL": "MRGL", "LABEL2": "Marginal Risk", "stroke": "#005500", "fill": "#66A366"}}]}