{"type": "FeatureCollection", "features": [{"type": "Feature", "geometry": {"type": "MultiPolygon", "coordinates": [[[[-82.8572897935276, 41.97283628642554], [-82.808, 41.911], [-82.689, 41.863], [-82.459, 41.878], [-81.764, 42.178], [-81.262, 42.421], [-80.316, 42.6], [-79.514, 42.795], [-79.252, 42.966], [-79.373, 43.553], [-78.632, 43.794], [-77.48905650691184, 43.789647587612], [-77.95, 39.7], [-77.25, 38.51], [-76.56, 37.3], [-76.98, 36.24], [-79.73, 34.1], [-80.4, 33.59], [-80.97, 32.53], [-81.79, 32.11], [-82.4, 32.25], [-83.02, 32.8], [-85.04, 33.74], [-87.45, 34.09], [-88.54, 34.34], [-89.27, 34.32], [-90.37, 34.05], [-93.42, 30.69], [-93.46968131435692, 29.433772479832097], [-93.588, 29.43], [-93.777, 29.35], [-93.961, 29.348], [-94.266, 29.222], [-94.502, 29.062], [-94.9, 28.808], [-95.134, 28.597], [-95.489, 28.428], [-96.044, 28.182], [-96.147, 28.055], [-96.427, 27.94], [-96.796, 27.579], [-97.017, 27.081], [-96.876, 26.595], [-96.749, 25.948], [-97.075, 25.799], [-97.23, 25.659], [-97.68, 25.837], [-98.218, 25.934], [-98.509, 26.039], [-99.103, 26.254], [-99.357, 26.519], [-99.489, 26.804], [-99.612, 27.039], [-99.697, 27.291], [-99.724, 27.496], [-99.917, 27.637], [-100.23, 28.008], [-100.41, 28.265], [-100.596, 28.593], [-100.754, 28.844], [-100.911, 29.059], [-101.161, 29.268], [-101.45, 29.518], [-101.616, 29.594], [-101.852, 29.614], [-102.125, 29.651], [-102.3, 29.645], [-102.486, 29.578], [-102.613, 29.283], [-102.733, 29.098], [-102.962, 28.86], [-103.419, 28.868], [-104.191, 29.275], [-104.636, 29.554], [-104.879, 29.863], [-104.926, 30.211], [-105.115, 30.476], [-105.605, 30.822], [-106.064, 31.194], [-106.509, 31.409], [-106.568, 31.573], [-106.92754377371641, 31.58995409664679], [-105.14, 32.15], [-102.79, 32.07], [-100.13, 33.4], [-99.92, 33.71], [-96.44, 37.32], [-94.59, 39.02], [-93.17, 39.79], [-89.41, 41.09], [-87.03, 42.01], [-83.37, 41.74], [-82.8572897935276, 41.97283628642554]]], [[[-107.63, 36.55], [-107.4, 38.49], [-105.76, 39.28], [-104.41, 38.72], [-104.39, 37.08], [-105.24, 35.95], [-106.82, 35.77], [-107.63, 36.55]]], [[[-80.16849576374246, 28.0019490846725], [-79.788, 27.148], [-79.7, 26.777], [-79.766, 26.228], [-79.812, 25.576], [-79.965, 25.158], [-80.143, 24.859], [-80.331, 24.705], [-80.635, 24.487], [-81.054, 24.361], [-81.782, 24.208], [-82.816, 24.169], [-83.288, 24.221], [-83.28, 24.513], [-83.238, 24.798], [-83.163, 25.012], [-82.313, 25.017], [-82.368, 25.134], [-82.51, 25.288], [-82.632, 25.453], [-81.934, 25.61], [-82.143, 26.09], [-82.324, 26.171], [-82.535, 26.48], [-82.719, 26.892], [-82.78120643124207, 26.995140196878054], [-80.16849576374246, 28.001949084672496], [-80.16849576374246, 28.0019490846725]]]]}, "properties": {"DN": 2, "VALID": "202409231200", "EXPIRE": "202409241200", "ISSUE": "202409230523", "LABEL": "TSTM", "LABEL2": "General Thunderstorms Risk", "stroke": "#55BB55", "fill": "#C1E9C1"}}, {"type": "Feature", "geometry": {"type": "MultiPolygon", "coordinates": [[[[-93.99, 35.59], [-93.47, 36.45], [-93.1, 36.89], [-92.08, 37.6], [-90.41, 38.34], [-89.43, 38.56], [-85.96, 38.46], [-84.11, 37.72], [-82.79, 36.69], [-83.17, 35.9], [-83.88, 35.5], [-85.0, 35.51], [-86.47, 35.77], [-88.3, 35.68], [-90.37, 35.18], [-92.89, 34.23], [-93.48, 34.23], [-94.01, 34.75], [-93.99, 35.59]]]]}, "properties": {"DN": 3, "VALID": "202409231200", "EXPIRE": "202409241200", "ISSUE": "202409230523", "LABEL": "MRGL", "LABEL2": "Marginal Risk", "stroke": "#005500", "fill": "#66A366"}}]}