{"type": "FeatureCollection", "features": [{"type": "Feature", "geometry": {"type": "MultiPolygon", "coordinates": [[[[-74.71518561407416, 38.67055316779869], [-74.716, 38.67], [-74.701, 38.442], [-74.762, 38.239], [-75.086, 37.666], [-75.263, 37.548], [-75.356, 37.334], [-75.645, 36.894], [-75.371, 36.199], [-75.12, 35.649], [-75.166, 35.243], [-75.279, 34.984], [-75.429, 34.931], [-75.726, 34.857], [-76.265, 34.375], [-76.54, 34.248], [-76.776, 34.354], [-76.936, 34.358], [-77.521, 34.032], [-77.684, 33.615], [-77.95, 33.516], [-78.163, 33.577], [-78.569, 33.483], [-78.808, 33.309], [-78.931, 32.928], [-79.294, 32.69], [-79.725, 32.427], [-80.061, 32.203], [-80.21, 32.07], [-80.40441356763384, 31.98053534940744], [-81.75, 33.16], [-83.19, 34.36], [-84.73, 35.08], [-85.09, 36.07], [-84.87, 36.77], [-83.7, 38.1], [-81.84, 38.9], [-77.06, 39.42], [-75.57, 39.11], [-74.71518561407416, 38.67055316779869]]], [[[-80.87853527751646, 29.81731796801505], [-80.765, 29.498], [-80.349, 28.83], [-80.197, 28.552], [-80.271, 28.232], [-79.788, 27.148], [-79.7, 26.777], [-79.766, 26.228], [-79.812, 25.576], [-79.965, 25.158], [-80.143, 24.859], [-80.331, 24.705], [-80.635, 24.487], [-81.054, 24.361], [-81.782, 24.208], [-82.816, 24.169], [-83.288, 24.221], [-83.28, 24.513], [-83.238, 24.798], [-83.163, 25.012], [-82.313, 25.017], [-82.368, 25.134], [-82.51, 25.288], [-82.632, 25.453], [-81.934, 25.61], [-82.143, 26.09], [-82.324, 26.171], [-82.535, 26.48], [-82.719, 26.892], [-83.105, 27.532], [-83.07, 27.615], [-83.183, 27.781], [-83.185, 28.105], [-83.1795521006848, 28.15534610401629], [-82.19, 28.92], [-80.87853527751646, 29.81731796801505]]]]}, "properties": {"DN": 2, "VALID": "202409271200", "EXPIRE": "202409281200", "ISSUE": "202409260532", "LABEL": "TSTM", "LABEL2": "General Thunderstorms Risk", "stroke": "#55BB55", "fill": "#C1E9C1"}}, {"type": "Feature", "geometry": {"type": "MultiPolygon", "coordinates": [[[[-75.52028687405769, 37.0838746554139], [-75.645, 36.894], [-75.371, 36.199], [-75.12, 35.649], [-75.166, 35.243], [-75.279, 34.984], [-75.429, 34.931], [-75.726, 34.857], [-76.265, 34.375], [-76.54, 34.248], [-76.776, 34.354], [-76.936, 34.358], [-77.521, 34.032], [-77.684, 33.615], [-77.95, 33.516], [-78.163, 33.577], [-78.569, 33.483], [-78.808, 33.309], [-78.931, 32.928], [-79.294, 32.69], [-79.725, 32.427], [-79.926475, 32.292683333333336], [-80.34, 32.99], [-82.85, 35.36], [-83.27, 36.41], [-82.88, 37.2], [-81.64, 37.77], [-77.3, 37.57], [-75.52028687405769, 37.0838746554139]]]]}, "properties": {"DN": 3, "VALID": "202409271200", "EXPIRE": "202409281200", "ISSUE": "202409260532", "LABEL": "MRGL", "LABEL2": "Marginal Risk", "stroke": "#005500", "fill": "#66A366"}}, {"type": "Feature", "geometry": {"type": "MultiPolygon", "coordinates": [[[[-75.34626588505137, 36.1448017401524], [-75.12, 35.649], [-75.166, 35.243], [-75.279, 34.984], [-75.429, 34.931], [-75.726, 34.857], [-76.265, 34.375], [-76.54, 34.248], [-76.776, 34.354], [-76.936, 34.358], [-77.521, 34.032], [-77.684, 33.615], [-77.95, 33.516], [-78.163, 33.577], [-78.569, 33.483], [-78.808, 33.309], [-78.931, 32.928], [-79.09507201216036, 32.82042661461662], [-80.55, 34.88], [-80.7, 35.74], [-79.71, 36.48], [-76.98, 36.47], [-75.34626588505137, 36.1448017401524]]]]}, "properties": {"DN": 4, "VALID": "202409271200", "EXPIRE": "202409281200", "ISSUE": "202409260532", "LABEL": "SLGT", "LABEL2": "Slight Risk", "stroke": "#DDAA00", "fill": "#FFE066"}}]}