{"type": "FeatureCollection", "features": [{"type": "Feature", "geometry": {"type": "MultiPolygon", "coordinates": [[[[-82.19425458345556, 42.88107179524788], [-82.196, 42.879], [-82.304, 42.546], [-82.518, 42.326], [-82.69, 42.224], [-82.863, 42.181], [-82.903, 42.063], [-82.863, 41.98], [-82.808, 41.911], [-82.689, 41.863], [-82.459, 41.878], [-81.764, 42.178], [-81.262, 42.421], [-80.316, 42.6], [-79.514, 42.795], [-79.252, 42.966], [-79.373, 43.553], [-78.632, 43.794], [-77.48892810015226, 43.78964709862967], [-78.07, 38.56], [-78.49, 35.41], [-80.22, 33.8], [-81.42, 32.86], [-82.68, 32.73], [-85.06, 33.82], [-86.64, 35.05], [-87.97, 35.21], [-89.04, 34.93], [-90.37, 34.05], [-93.42, 30.69], [-93.46968131435692, 29.433772479832097], [-93.588, 29.43], [-93.777, 29.35], [-93.961, 29.348], [-94.266, 29.222], [-94.502, 29.062], [-94.9, 28.808], [-95.134, 28.597], [-95.489, 28.428], [-96.044, 28.182], [-96.147, 28.055], [-96.427, 27.94], [-96.796, 27.579], [-97.017, 27.081], [-96.876, 26.595], [-96.749, 25.948], [-97.075, 25.799], [-97.23, 25.659], [-97.68, 25.837], [-98.218, 25.934], [-98.509, 26.039], [-99.103, 26.254], [-99.357, 26.519], [-99.489, 26.804], [-99.612, 27.039], [-99.697, 27.291], [-99.724, 27.496], [-99.917, 27.637], [-100.23, 28.008], [-100.41, 28.265], [-100.596, 28.593], [-100.754, 28.844], [-100.911, 29.059], [-101.161, 29.268], [-101.45, 29.518], [-101.616, 29.594], [-101.852, 29.614], [-102.125, 29.651], [-102.3, 29.645], [-102.486, 29.578], [-102.613, 29.283], [-102.733, 29.098], [-102.962, 28.86], [-103.419, 28.868], [-104.191, 29.275], [-104.636, 29.554], [-104.879, 29.863], [-104.92455506491336, 30.200301331698896], [-100.2, 33.4], [-96.0, 36.53], [-94.6, 38.15], [-89.63, 40.47], [-82.19425458345556, 42.88107179524788]]], [[[-107.63, 36.55], [-107.4, 38.49], [-105.76, 39.28], [-104.41, 38.72], [-104.39, 37.08], [-105.24, 35.95], [-106.82, 35.77], [-107.63, 36.55]]], [[[-80.16849576374246, 28.0019490846725], [-79.788, 27.148], [-79.7, 26.777], [-79.766, 26.228], [-79.812, 25.576], [-79.965, 25.158], [-80.143, 24.859], [-80.331, 24.705], [-80.635, 24.487], [-81.054, 24.361], [-81.782, 24.208], [-82.816, 24.169], [-83.288, 24.221], [-83.28, 24.513], [-83.238, 24.798], [-83.163, 25.012], [-82.313, 25.017], [-82.368, 25.134], [-82.51, 25.288], [-82.632, 25.453], [-81.934, 25.61], [-82.143, 26.09], [-82.324, 26.171], [-82.535, 26.48], [-82.719, 26.892], [-82.78120643124207, 26.995140196878054], [-80.16849576374246, 28.001949084672496], [-80.16849576374246, 28.0019490846725]]]]}, "properties": {"DN": 2, "VALID": "202409231200", "EXPIRE": "202409241200", "ISSUE": "202409220520", "LABEL": "TSTM", "LABEL2": "General Thunderstorms Risk", "stroke": "#55BB55", "fill": "#C1E9C1"}}, {"type": "Feature", "geometry": {"type": "MultiPolygon", "coordinates": [[[[-91.84, 37.4], [-89.7, 37.82], [-84.31, 38.13], [-83.23, 37.61], [-82.79, 36.69], [-83.18, 35.91], [-83.89, 35.51], [-84.99, 35.51], [-86.87, 36.06], [-87.59, 36.11], [-90.31, 35.2], [-92.88, 34.23], [-93.46, 34.23], [-94.01, 34.74], [-94.0, 35.6], [-93.47, 36.46], [-93.1, 36.9], [-91.84, 37.4]]]]}, "properties": {"DN": 3, "VALID": "202409231200", "EXPIRE": "202409241200", "ISSUE": "202409220520", "LABEL": "MRGL", "LABEL2": "Marginal Risk", "stroke": "#005500", "fill": "#66A366"}}]}