{"type": "FeatureCollection", "features": [{"type": "Feature", "geometry": {"type": "MultiPolygon", "coordinates": [[[[-73.760493, 39.773875], [-73.839, 39.533], [-74.085, 39.198], [-74.372, 38.982], [-74.504, 38.814], [-74.716, 38.67], [-74.701, 38.442], [-74.762, 38.239], [-75.086, 37.666], [-75.263, 37.548], [-75.356, 37.334], [-75.645, 36.894], [-75.371, 36.199], [-75.12, 35.649], [-75.166, 35.243], [-75.279, 34.984], [-75.429, 34.931], [-75.726, 34.857], [-76.265, 34.375], [-76.54, 34.248], [-76.776, 34.354], [-76.936, 34.358], [-77.521, 34.032], [-77.684, 33.615], [-77.95, 33.516], [-78.163, 33.577], [-78.569, 33.483], [-78.808, 33.309], [-78.931, 32.928], [-79.294, 32.69], [-79.725, 32.427], [-80.061, 32.203], [-80.21, 32.07], [-80.436, 31.966], [-80.764, 31.633], [-81.09, 30.74], [-80.989, 30.128], [-80.765, 29.498], [-80.349, 28.83], [-80.197, 28.552], [-80.271, 28.232], [-79.788, 27.148], [-79.7, 26.777], [-79.766, 26.228], [-79.812, 25.576], [-79.965, 25.158], [-80.143, 24.859], [-80.331, 24.705], [-80.635, 24.487], [-81.054, 24.361], [-81.782, 24.208], [-82.816, 24.169], [-83.288, 24.221], [-83.28, 24.513], [-83.238, 24.798], [-83.163, 25.012], [-82.313, 25.017], [-82.368, 25.134], [-82.51, 25.288], [-82.632, 25.453], [-81.934, 25.61], [-82.143, 26.09], [-82.324, 26.171], [-82.535, 26.48], [-82.719, 26.892], [-83.105, 27.532], [-83.07, 27.615], [-83.183, 27.781], [-83.185, 28.105], [-83.175297, 28.194665], [-83.017807, 28.462534], [-83.014, 28.465], [-83.011871, 28.47263], [-81.62, 30.84], [-81.83, 31.79], [-82.45, 32.32], [-83.09, 32.56], [-83.87, 32.45], [-84.87, 32.36], [-85.69, 33.0], [-86.03, 33.79], [-86.26, 34.8], [-86.17, 36.21], [-85.66, 37.29], [-84.45, 38.41], [-83.73, 38.98], [-82.72, 39.43], [-81.55, 39.72], [-80.17, 39.8], [-78.68, 39.82], [-77.27, 39.81], [-76.01, 39.79], [-73.760493, 39.773875]]], [[[-105.61, 40.2], [-104.7, 39.34], [-104.04, 38.7], [-103.95, 38.34], [-104.25, 38.19], [-104.91, 38.04], [-105.19, 37.81], [-105.27, 37.46], [-105.1, 37.14], [-104.79, 36.92], [-104.37, 36.94], [-103.63, 36.73], [-103.41, 36.36], [-103.47, 36.08], [-103.76, 35.69], [-104.21, 35.31], [-105.42, 35.26], [-106.18, 35.8], [-106.79, 36.11], [-108.03999999999999, 36.94], [-108.67, 37.87], [-108.27, 39.03], [-107.78, 39.62], [-106.64, 40.24], [-106.11, 40.25], [-105.61, 40.2]]], [[[-88.61, 33.75], [-89.56, 33.56], [-91.18, 34.15], [-91.58, 34.98], [-91.66, 35.78], [-91.25, 36.59], [-90.5, 36.74], [-89.25, 36.28], [-88.18, 35.02], [-88.11, 34.15], [-88.61, 33.75]]]]}, "properties": {"DN": 2, "VALID": "202409271200", "EXPIRE": "202409281200", "ISSUE": "202409270557", "LABEL": "TSTM", "LABEL2": "General Thunderstorms Risk", "stroke": "#55BB55", "fill": "#C1E9C1"}}, {"type": "Feature", "geometry": {"type": "MultiPolygon", "coordinates": [[[[-74.81778153590241, 38.140349320765175], [-75.086, 37.666], [-75.263, 37.548], [-75.356, 37.334], [-75.645, 36.894], [-75.371, 36.199], [-75.12, 35.649], [-75.166, 35.243], [-75.279, 34.984], [-75.429, 34.931], [-75.726, 34.857], [-76.265, 34.375], [-76.54, 34.248], [-76.776, 34.354], [-76.936, 34.358], [-77.521, 34.032], [-77.684, 33.615], [-77.95, 33.516], [-78.163, 33.577], [-78.569, 33.483], [-78.808, 33.309], [-78.931, 32.928], [-79.294, 32.69], [-79.725, 32.427], [-80.061, 32.203], [-80.14057647465239, 32.1319686501425], [-82.16, 34.59], [-82.88, 35.66], [-82.79, 36.29], [-82.34, 37.08], [-80.85, 38.08], [-77.57, 38.68], [-74.81778153590241, 38.140349320765175]]]]}, "properties": {"DN": 3, "VALID": "202409271200", "EXPIRE": "202409281200", "ISSUE": "202409270557", "LABEL": "MRGL", "LABEL2": "Marginal Risk", "stroke": "#005500", "fill": "#66A366"}}, {"type": "Feature", "geometry": {"type": "MultiPolygon", "coordinates": [[[[-75.60636337192722, 36.952823932013914], [-75.645, 36.894], [-75.371, 36.199], [-75.12, 35.649], [-75.166, 35.243], [-75.279, 34.984], [-75.429, 34.931], [-75.726, 34.857], [-76.265, 34.375], [-76.54, 34.248], [-76.776, 34.354], [-76.936, 34.358], [-77.521, 34.032], [-77.684, 33.615], [-77.95, 33.516], [-78.163, 33.577], [-78.569, 33.483], [-78.808, 33.309], [-78.931, 32.928], [-79.294, 32.69], [-79.64299500974707, 32.47704016806617], [-81.39, 34.74], [-81.57, 35.45], [-81.22, 36.27], [-80.88, 36.76], [-80.27, 37.11], [-79.12, 37.27], [-77.96, 37.25], [-76.7, 37.17], [-75.60636337192722, 36.952823932013914]]]]}, "properties": {"DN": 4, "VALID": "202409271200", "EXPIRE": "202409281200", "ISSUE": "202409270557", "LABEL": "SLGT", "LABEL2": "Slight Risk", "stroke": "#DDAA00", "fill": "#FFE066"}}, {"type": "Feature", "geometry": {"type": "MultiPolygon", "coordinates": [[[[-75.77426632013301, 34.813837910381984], [-76.265, 34.375], [-76.54, 34.248], [-76.776, 34.354], [-76.936, 34.358], [-77.521, 34.032], [-77.684, 33.615], [-77.95, 33.516], [-78.163, 33.577], [-78.569, 33.483], [-78.808, 33.309], [-78.931, 32.928], [-79.01900971216669, 32.87029666254635], [-79.42, 33.65], [-79.52, 34.4], [-79.4, 34.7], [-78.98, 35.18], [-78.24, 35.35], [-77.11, 35.28], [-75.77426632013301, 34.813837910381984]]]]}, "properties": {"DN": 5, "VALID": "202409271200", "EXPIRE": "202409281200", "ISSUE": "202409270557", "LABEL": "ENH", "LABEL2": "Enhanced Risk", "stroke": "#FF6600", "fill": "#FFA366"}}]}