{"type": "FeatureCollection", "features": [{"type": "Feature", "geometry": {"type": "MultiPolygon", "coordinates": [[[[-86.3108149452052, 47.71230846653442], [-85.677, 47.453], [-84.653, 46.989], [-84.444, 46.699], [-84.034, 46.687], [-83.88, 46.326], [-83.814, 46.264], [-83.743, 46.252], [-83.601, 46.229], [-83.414, 46.232], [-83.251, 46.093], [-83.288, 45.851], [-83.292, 45.799], [-82.232, 45.499], [-81.965, 44.144], [-81.902, 43.586], [-82.087, 43.18], [-82.073, 43.025], [-82.196, 42.879], [-82.304, 42.546], [-82.518, 42.326], [-82.69, 42.224], [-82.863, 42.181], [-82.903, 42.063], [-82.863, 41.98], [-82.808, 41.911], [-82.689, 41.863], [-82.459, 41.878], [-81.764, 42.178], [-81.262, 42.421], [-80.37982956592317, 42.58792231257902], [-80.72, 39.57], [-80.75, 38.28], [-81.29, 37.7], [-82.56, 37.07], [-83.28, 35.9], [-83.94, 35.07], [-85.25, 34.52], [-86.95, 34.57], [-88.65, 35.6], [-91.54, 35.39], [-94.15, 34.61], [-96.08, 33.93], [-97.25, 31.68], [-98.9, 30.13], [-100.28, 29.06], [-100.662542476402, 28.69870988339811], [-100.662542476402, 28.698709883398106], [-100.754, 28.844], [-100.911, 29.059], [-101.161, 29.268], [-101.45, 29.518], [-101.616, 29.594], [-101.852, 29.614], [-102.125, 29.651], [-102.3, 29.645], [-102.486, 29.578], [-102.613, 29.283], [-102.733, 29.098], [-102.962, 28.86], [-103.419, 28.868], [-104.191, 29.275], [-104.636, 29.554], [-104.879, 29.863], [-104.926, 30.211], [-105.04934237082594, 30.38394036121097], [-103.84, 31.9], [-103.68, 32.15], [-103.35, 34.0], [-101.68, 35.72], [-100.57, 37.15], [-100.16, 38.83], [-99.33, 40.31], [-95.89, 41.17], [-94.49, 41.43], [-92.67, 42.24], [-91.22, 43.65], [-89.46, 45.02], [-86.3108149452052, 47.71230846653442]]], [[[-80.38355051305831, 28.885480150776317], [-80.349, 28.83], [-80.197, 28.552], [-80.271, 28.232], [-79.788, 27.148], [-79.7, 26.777], [-79.766, 26.228], [-79.812, 25.576], [-79.965, 25.158], [-80.143, 24.859], [-80.331, 24.705], [-80.635, 24.487], [-81.054, 24.361], [-81.782, 24.208], [-82.816, 24.169], [-83.288, 24.221], [-83.28, 24.513], [-83.238, 24.798], [-83.163, 25.012], [-82.313, 25.017], [-82.368, 25.134], [-82.51, 25.288], [-82.632, 25.453], [-81.934, 25.61], [-82.143, 26.09], [-82.324, 26.171], [-82.535, 26.48], [-82.719, 26.892], [-83.105, 27.532], [-83.07, 27.615], [-83.09752505201732, 27.65543503216703], [-81.49, 28.14], [-80.38355051305831, 28.885480150776317]]], [[[-105.61, 39.27], [-105.88, 36.94], [-107.86, 37.11], [-108.65, 38.07], [-107.67, 39.78], [-106.77, 40.63], [-105.72, 40.59], [-105.61, 39.27]]]]}, "properties": {"DN": 2, "VALID": "202409221200", "EXPIRE": "202409231200", "ISSUE": "202409220534", "LABEL": "TSTM", "LABEL2": "General Thunderstorms Risk", "stroke": "#55BB55", "fill": "#C1E9C1"}}, {"type": "Feature", "geometry": {"type": "MultiPolygon", "coordinates": [[[[-101.27720355807658, 29.368522109062784], [-101.45, 29.518], [-101.616, 29.594], [-101.852, 29.614], [-102.125, 29.651], [-102.3, 29.645], [-102.486, 29.578], [-102.613, 29.283], [-102.733, 29.098], [-102.962, 28.86], [-103.419, 28.868], [-104.11503070261759, 29.23494882897067], [-104.11503070261759, 29.234948828970673], [-102.72, 31.56], [-101.04, 33.94], [-99.29, 35.62], [-97.31, 36.63], [-94.62, 37.67], [-92.04, 38.14], [-89.55, 38.28], [-87.82, 38.11], [-87.39, 37.17], [-88.93, 36.45], [-93.09, 35.93], [-95.45, 35.23], [-97.33, 34.06], [-98.57, 31.89], [-100.18, 30.26], [-101.27720355807658, 29.368522109062784]]]]}, "properties": {"DN": 3, "VALID": "202409221200", "EXPIRE": "202409231200", "ISSUE": "202409220534", "LABEL": "MRGL", "LABEL2": "Marginal Risk", "stroke": "#005500", "fill": "#66A366"}}]}