{"type": "FeatureCollection", "features": [{"type": "Feature", "geometry": {"type": "MultiPolygon", "coordinates": [[[[-98.17511504139063, 49.18099607402529], [-96.747, 49.197], [-95.911, 49.174], [-95.453, 49.167], [-95.49, 49.561], [-94.579, 49.541], [-94.395, 48.962], [-93.805, 48.857], [-93.513, 48.786], [-93.223, 48.834], [-92.5, 48.697], [-91.94, 48.521], [-91.477, 48.338], [-90.777, 48.453], [-90.513, 48.262], [-90.011, 48.266], [-89.521, 48.207], [-88.425, 48.56], [-87.08, 48.027], [-85.677, 47.453], [-84.653, 46.989], [-84.444, 46.699], [-84.034, 46.687], [-83.88, 46.326], [-83.814, 46.264], [-83.743, 46.252], [-83.63464944229456, 46.234450261780104], [-85.28, 44.03], [-85.49, 40.97], [-85.43, 39.47], [-84.87, 39.03], [-84.02, 39.0], [-83.35, 39.3], [-82.64, 40.92], [-82.1830402989058, 41.99711929543635], [-81.764, 42.178], [-81.262, 42.421], [-80.316, 42.6], [-79.514, 42.795], [-79.252, 42.966], [-79.373, 43.553], [-78.632, 43.794], [-77.319, 43.789], [-76.955, 43.791], [-76.557, 44.256], [-75.977, 44.604], [-75.79431424025458, 44.735885441527444], [-75.63, 43.75], [-75.29, 40.74], [-74.98, 39.32], [-74.70687261429205, 38.676199733688414], [-74.716, 38.67], [-74.701, 38.442], [-74.762, 38.239], [-75.086, 37.666], [-75.263, 37.548], [-75.356, 37.334], [-75.645, 36.894], [-75.60893821090306, 36.802529403568], [-77.55, 35.93], [-80.22, 34.95], [-82.21, 34.65], [-82.92, 34.54], [-84.03, 34.75], [-84.49, 34.84], [-87.1, 34.65], [-90.33, 34.82], [-93.25, 34.68], [-96.21, 35.8], [-97.89, 35.98], [-98.54, 35.28], [-99.57, 34.29], [-101.01, 31.96], [-102.2, 30.11], [-102.34889067627566, 29.62738884241683], [-102.486, 29.578], [-102.613, 29.283], [-102.733, 29.098], [-102.962, 28.86], [-103.419, 28.868], [-104.191, 29.275], [-104.636, 29.554], [-104.879, 29.863], [-104.926, 30.211], [-105.115, 30.476], [-105.605, 30.822], [-106.064, 31.194], [-106.509, 31.409], [-106.568, 31.573], [-107.183, 31.602], [-107.347638469782, 31.607273118249246], [-106.96, 33.87], [-107.66, 34.31], [-108.35, 34.26], [-109.24, 33.94], [-110.47, 33.68], [-112.77, 33.93], [-113.77, 34.43], [-114.47, 36.03], [-114.27, 38.21], [-112.28, 41.09], [-109.47, 41.73], [-106.68, 41.46], [-103.45, 39.92], [-100.76, 40.39], [-98.56, 41.94], [-96.5, 44.42], [-95.78, 44.97], [-95.15, 46.96], [-96.82, 47.77], [-98.17511504139063, 49.18099607402529]]], [[[-81.0313103059553, 30.384375319253866], [-80.989, 30.128], [-80.765, 29.498], [-80.349, 28.83], [-80.197, 28.552], [-80.271, 28.232], [-79.788, 27.148], [-79.7, 26.777], [-79.766, 26.228], [-79.812, 25.576], [-79.965, 25.158], [-80.143, 24.859], [-80.331, 24.705], [-80.635, 24.487], [-81.054, 24.361], [-81.782, 24.208], [-82.816, 24.169], [-83.288, 24.221], [-83.28, 24.513], [-83.238, 24.798], [-83.163, 25.012], [-82.313, 25.017], [-82.368, 25.134], [-82.51, 25.288], [-82.632, 25.453], [-81.934, 25.61], [-82.143, 26.09], [-82.324, 26.171], [-82.535, 26.48], [-82.719, 26.892], [-83.105, 27.532], [-83.07, 27.615], [-83.183, 27.781], [-83.185, 28.105], [-83.156, 28.373], [-83.014, 28.465], [-82.99, 28.551], [-83.0167359073359, 28.70101814671815], [-82.15, 29.26], [-81.46, 30.18], [-81.0313103059553, 30.384375319253866]]]]}, "properties": {"DN": 2, "VALID": "202409211200", "EXPIRE": "202409221200", "ISSUE": "202409210550", "LABEL": "TSTM", "LABEL2": "General Thunderstorms Risk", "stroke": "#55BB55", "fill": "#C1E9C1"}}, {"type": "Feature", "geometry": {"type": "MultiPolygon", "coordinates": [[[[-102.86293530637766, 28.96295806586077], [-102.962, 28.86], [-103.419, 28.868], [-104.191, 29.275], [-104.636, 29.554], [-104.879, 29.863], [-104.926, 30.211], [-105.115, 30.476], [-105.22659908205365, 30.554802617123602], [-105.22659908205365, 30.554802617123606], [-104.86, 31.6], [-105.1, 32.27], [-105.46, 33.99], [-107.03, 35.43], [-107.51, 36.23], [-107.25, 36.62], [-106.25, 36.9], [-104.69, 36.74], [-102.87, 36.84], [-101.12, 36.79], [-100.05, 36.25], [-100.12, 34.8], [-101.79, 32.45], [-102.36, 30.41], [-102.86293530637766, 28.96295806586077]]], [[[-96.67, 41.69], [-91.89, 45.64], [-90.36, 46.24], [-89.34, 45.88], [-88.92, 44.69], [-89.83, 43.11], [-92.7, 40.63], [-94.55, 39.0], [-95.78, 38.72], [-97.23, 39.11], [-97.57, 40.54], [-96.67, 41.69]]], [[[-79.3, 42.03], [-77.92, 42.57], [-77.14, 42.25], [-76.96, 39.87], [-77.3, 38.42], [-78.36, 36.86], [-79.66, 36.8], [-80.38, 37.41], [-79.96, 39.37], [-79.93, 41.01], [-79.3, 42.03]]]]}, "properties": {"DN": 3, "VALID": "202409211200", "EXPIRE": "202409221200", "ISSUE": "202409210550", "LABEL": "MRGL", "LABEL2": "Marginal Risk", "stroke": "#005500", "fill": "#66A366"}}, {"type": "Feature", "geometry": {"type": "MultiPolygon", "coordinates": [[[[-104.72, 33.07], [-104.81, 34.25], [-105.22, 35.32], [-104.64, 35.69], [-103.68, 35.59], [-102.66, 35.79], [-101.6, 35.48], [-101.32, 34.77], [-102.23, 33.8], [-102.45, 32.83], [-102.91, 32.23], [-103.41, 32.01], [-104.22, 32.13], [-104.72, 33.07]]]]}, "properties": {"DN": 4, "VALID": "202409211200", "EXPIRE": "202409221200", "ISSUE": "202409210550", "LABEL": "SLGT", "LABEL2": "Slight Risk", "stroke": "#DDAA00", "fill": "#FFE066"}}]}