{"type": "FeatureCollection", "features": [{"type": "Feature", "geometry": {"type": "MultiPolygon", "coordinates": [[[[-75.42013371591639, 36.32362749110181], [-75.371, 36.199], [-75.12, 35.649], [-75.166, 35.243], [-75.279, 34.984], [-75.429, 34.931], [-75.726, 34.857], [-76.265, 34.375], [-76.54, 34.248], [-76.776, 34.354], [-76.936, 34.358], [-77.521, 34.032], [-77.684, 33.615], [-77.95, 33.516], [-78.163, 33.577], [-78.569, 33.483], [-78.808, 33.309], [-78.931, 32.928], [-79.294, 32.69], [-79.725, 32.427], [-80.061, 32.203], [-80.21, 32.07], [-80.436, 31.966], [-80.764, 31.633], [-81.09, 30.74], [-80.989, 30.128], [-80.765, 29.498], [-80.349, 28.83], [-80.197, 28.552], [-80.271, 28.232], [-79.788, 27.148], [-79.7, 26.777], [-79.766, 26.228], [-79.812, 25.576], [-79.965, 25.158], [-80.143, 24.859], [-80.331, 24.705], [-80.635, 24.487], [-81.054, 24.361], [-81.782, 24.208], [-82.816, 24.169], [-83.288, 24.221], [-83.28, 24.513], [-83.238, 24.798], [-83.163, 25.012], [-82.313, 25.017], [-82.368, 25.134], [-82.51, 25.288], [-82.632, 25.453], [-81.934, 25.61], [-82.143, 26.09], [-82.324, 26.171], [-82.535, 26.48], [-82.719, 26.892], [-83.105, 27.532], [-83.07, 27.615], [-83.183, 27.781], [-83.185, 28.105], [-83.156, 28.373], [-83.014, 28.465], [-82.99, 28.551], [-83.026, 28.753], [-83.273, 28.827], [-83.421, 29.093], [-83.625, 29.29], [-83.69841713378807, 29.38571418923482], [-83.69841713378807, 29.385714189234825], [-82.14, 30.42], [-81.72, 30.94], [-80.83, 32.16], [-79.43, 33.37], [-78.17, 34.31], [-76.31, 35.24], [-75.42013371591639, 36.32362749110181]]], [[[-82.07957701184101, 44.725467606908516], [-81.965, 44.144], [-81.902, 43.586], [-82.087, 43.18], [-82.073, 43.025], [-82.196, 42.879], [-82.304, 42.546], [-82.518, 42.326], [-82.69, 42.224], [-82.863, 42.181], [-82.903, 42.063], [-82.863, 41.98], [-82.808, 41.911], [-82.689, 41.863], [-82.459, 41.878], [-81.764, 42.178], [-81.262, 42.421], [-80.316, 42.6], [-79.514, 42.795], [-79.252, 42.966], [-79.373, 43.553], [-78.632, 43.794], [-77.319, 43.789], [-76.955, 43.791], [-76.70196107739228, 44.08663592716731], [-76.56, 43.78], [-76.67, 43.06], [-77.3, 42.73], [-78.81, 42.28], [-79.95, 42.03], [-82.43, 41.44], [-84.8, 41.87], [-85.09, 42.95], [-83.55, 43.93], [-82.67, 44.39], [-82.07957701184101, 44.725467606908516]]], [[[-106.3, 35.06], [-106.73, 35.81], [-107.25, 37.69], [-107.09, 38.11], [-106.65, 38.4], [-105.48, 38.57], [-104.71, 38.17], [-104.3, 37.42], [-104.01, 36.44], [-103.91, 35.79], [-104.43, 34.99], [-104.94, 34.63], [-105.72, 34.64], [-106.3, 35.06]]]]}, "properties": {"DN": 2, "VALID": "202409281200", "EXPIRE": "202409291200", "ISSUE": "202409280549", "LABEL": "TSTM", "LABEL2": "General Thunderstorms Risk", "stroke": "#55BB55", "fill": "#C1E9C1"}}]}