{"type": "FeatureCollection", "features": [{"type": "Feature", "geometry": {"type": "MultiPolygon", "coordinates": [[[[-82.88699268738574, 42.11022157221207], [-82.903, 42.063], [-82.863, 41.98], [-82.808, 41.911], [-82.689, 41.863], [-82.459, 41.878], [-81.764, 42.178], [-81.262, 42.421], [-80.316, 42.6], [-79.514, 42.795], [-79.252, 42.966], [-79.373, 43.553], [-78.632, 43.794], [-77.65300223406197, 43.790271904927884], [-76.26, 41.64], [-76.68, 37.69], [-78.14, 34.62], [-80.34, 33.27], [-84.91, 32.34], [-87.0, 30.99], [-87.61897468367441, 29.900066317877666], [-87.771, 29.878], [-88.406, 29.863], [-88.432, 29.714], [-88.695, 29.394], [-88.581, 29.249], [-88.619, 29.022], [-88.937, 28.691], [-89.175, 28.63], [-89.399, 28.577], [-89.712, 28.693], [-89.828, 28.916], [-90.102, 28.755], [-90.54, 28.711], [-90.745, 28.711], [-91.083, 28.732], [-91.315, 28.893], [-91.556, 28.983], [-91.655, 29.121], [-91.742, 29.058], [-92.079, 29.114], [-92.164, 29.181], [-92.629, 29.233], [-93.243, 29.441], [-93.588, 29.43], [-93.777, 29.35], [-93.961, 29.348], [-94.266, 29.222], [-94.502, 29.062], [-94.9, 28.808], [-95.134, 28.597], [-95.489, 28.428], [-96.044, 28.182], [-96.147, 28.055], [-96.427, 27.94], [-96.796, 27.579], [-97.017, 27.081], [-96.876, 26.595], [-96.749, 25.948], [-97.075, 25.799], [-97.23, 25.659], [-97.68, 25.837], [-98.218, 25.934], [-98.509, 26.039], [-99.103, 26.254], [-99.357, 26.519], [-99.489, 26.804], [-99.612, 27.039], [-99.697, 27.291], [-99.724, 27.496], [-99.917, 27.637], [-100.23, 28.008], [-100.41, 28.265], [-100.596, 28.593], [-100.754, 28.844], [-100.911, 29.059], [-101.161, 29.268], [-101.45, 29.518], [-101.616, 29.594], [-101.852, 29.614], [-102.125, 29.651], [-102.3, 29.645], [-102.486, 29.578], [-102.613, 29.283], [-102.733, 29.098], [-102.962, 28.86], [-103.419, 28.868], [-104.191, 29.275], [-104.636, 29.554], [-104.879, 29.863], [-104.926, 30.211], [-105.115, 30.476], [-105.605, 30.822], [-106.064, 31.194], [-106.509, 31.409], [-106.568, 31.573], [-106.87355413373072, 31.587408243704374], [-106.87355413373072, 31.587408243704377], [-107.04, 34.38], [-106.01, 36.36], [-103.93, 37.04], [-101.05, 36.62], [-99.58, 35.75], [-98.41, 34.08], [-96.8, 33.66], [-94.77, 34.2], [-90.46, 37.55], [-85.76, 40.37], [-82.88699268738574, 42.11022157221207]]], [[[-80.08906958121214, 27.82369239344506], [-79.788, 27.148], [-79.7, 26.777], [-79.766, 26.228], [-79.812, 25.576], [-79.965, 25.158], [-80.143, 24.859], [-80.331, 24.705], [-80.635, 24.487], [-81.054, 24.361], [-81.782, 24.208], [-82.816, 24.169], [-83.288, 24.221], [-83.28, 24.513], [-83.238, 24.798], [-83.163, 25.012], [-82.313, 25.017], [-82.368, 25.134], [-82.51, 25.288], [-82.632, 25.453], [-81.934, 25.61], [-82.143, 26.09], [-82.324, 26.171], [-82.535, 26.48], [-82.719, 26.892], [-83.105, 27.532], [-83.07, 27.615], [-83.0761386876864, 27.62401789518534], [-83.0761386876864, 27.624017895185343], [-81.65, 27.44], [-80.08906958121214, 27.82369239344506]]], [[[-82.49970662620132, 42.34480627212948], [-82.518, 42.326], [-82.69, 42.224], [-82.70551928234535, 42.22014260612225], [-82.49970662620132, 42.34480627212948]]]]}, "properties": {"DN": 2, "VALID": "202409241200", "EXPIRE": "202409251200", "ISSUE": "202409220652", "LABEL": "TSTM", "LABEL2": "General Thunderstorms Risk", "stroke": "#55BB55", "fill": "#C1E9C1"}}]}