{"type": "FeatureCollection", "features": [{"type": "Feature", "geometry": {"type": "MultiPolygon", "coordinates": [[[[-76.76227489053873, 34.347835332191124], [-76.776, 34.354], [-76.936, 34.358], [-77.521, 34.032], [-77.684, 33.615], [-77.95, 33.516], [-78.163, 33.577], [-78.569, 33.483], [-78.808, 33.309], [-78.931, 32.928], [-79.294, 32.69], [-79.725, 32.427], [-80.061, 32.203], [-80.21, 32.07], [-80.436, 31.966], [-80.764, 31.633], [-81.09, 30.74], [-80.989, 30.128], [-80.765, 29.498], [-80.349, 28.83], [-80.197, 28.552], [-80.271, 28.232], [-79.788, 27.148], [-79.7, 26.777], [-79.766, 26.228], [-79.812, 25.576], [-79.965, 25.158], [-80.143, 24.859], [-80.331, 24.705], [-80.635, 24.487], [-81.054, 24.361], [-81.782, 24.208], [-82.816, 24.169], [-83.288, 24.221], [-83.28, 24.513], [-83.238, 24.798], [-83.163, 25.012], [-82.313, 25.017], [-82.368, 25.134], [-82.51, 25.288], [-82.632, 25.453], [-81.934, 25.61], [-82.143, 26.09], [-82.324, 26.171], [-82.535, 26.48], [-82.719, 26.892], [-83.105, 27.532], [-83.07, 27.615], [-83.183, 27.781], [-83.185, 28.105], [-83.156, 28.373], [-83.014, 28.465], [-82.99, 28.551], [-83.026, 28.753], [-83.273, 28.827], [-83.421, 29.093], [-83.625, 29.29], [-83.895, 29.642], [-84.073, 29.73], [-84.171, 29.626], [-84.467, 29.438], [-85.018, 29.246], [-85.336, 29.335], [-85.675, 29.436], [-85.767, 29.696], [-85.985, 29.876], [-86.462, 30.068], [-87.771, 29.878], [-88.406, 29.863], [-88.432, 29.714], [-88.695, 29.394], [-88.581, 29.249], [-88.619, 29.022], [-88.937, 28.691], [-89.175, 28.63], [-89.399, 28.577], [-89.712, 28.693], [-89.828, 28.916], [-90.102, 28.755], [-90.54, 28.711], [-90.745, 28.711], [-91.02937249414586, 28.728668113541605], [-90.06, 30.4], [-90.39, 31.86], [-92.4, 32.81], [-94.25, 33.45], [-94.76, 34.36], [-93.52, 36.4], [-88.66, 38.39], [-84.55, 38.72], [-79.71, 37.33], [-76.95, 34.85], [-76.76227489053873, 34.34783533219113], [-76.76227489053873, 34.347835332191124]]]]}, "properties": {"DN": 2, "VALID": "202409261200", "EXPIRE": "202409271200", "ISSUE": "202409240707", "LABEL": "TSTM", "LABEL2": "General Thunderstorms Risk", "stroke": "#55BB55", "fill": "#C1E9C1"}}, {"type": "Feature", "geometry": {"type": "MultiPolygon", "coordinates": [[[[-81.01211855687586, 30.953337818128386], [-81.09, 30.74], [-81.04156272793581, 30.44649890590808], [-81.12, 30.07], [-81.46, 29.29], [-82.3, 27.94], [-82.94221830911212, 27.2621028959372], [-83.105, 27.532], [-83.07, 27.615], [-83.183, 27.781], [-83.185, 28.105], [-83.156, 28.373], [-83.014, 28.465], [-82.99, 28.551], [-83.026, 28.753], [-83.273, 28.827], [-83.421, 29.093], [-83.625, 29.29], [-83.895, 29.642], [-84.073, 29.73], [-84.171, 29.626], [-84.467, 29.438], [-84.61468462408222, 29.386538207216358], [-84.43, 30.12], [-84.1, 32.35], [-83.5, 32.98], [-82.41, 32.97], [-81.38, 32.38], [-81.01211855687586, 30.953337818128386]]]]}, "properties": {"DN": 3, "VALID": "202409261200", "EXPIRE": "202409271200", "ISSUE": "202409240707", "LABEL": "MRGL", "LABEL2": "Marginal Risk", "stroke": "#005500", "fill": "#66A366"}}]}