{"type": "FeatureCollection", "features": [{"type": "Feature", "geometry": {"type": "MultiPolygon", "coordinates": [[[[-81.15526172143267, 42.44119677786845], [-80.316, 42.6], [-79.514, 42.795], [-79.252, 42.966], [-79.373, 43.553], [-78.632, 43.794], [-77.319, 43.789], [-76.955, 43.791], [-76.557, 44.256], [-75.977, 44.604], [-75.603, 44.874], [-74.881, 45.189], [-71.71, 45.171], [-71.571, 45.456], [-70.993, 45.547], [-70.611, 45.956], [-70.553, 46.207], [-70.214, 46.804], [-70.11943768206005, 46.89489209098794], [-70.18, 45.65], [-71.91, 43.26], [-74.07, 40.8], [-73.99898470090433, 39.31513465527255], [-74.085, 39.198], [-74.372, 38.982], [-74.504, 38.814], [-74.716, 38.67], [-74.701, 38.442], [-74.762, 38.239], [-75.086, 37.666], [-75.263, 37.548], [-75.356, 37.334], [-75.645, 36.894], [-75.371, 36.199], [-75.12, 35.649], [-75.166, 35.243], [-75.279, 34.984], [-75.429, 34.931], [-75.726, 34.857], [-76.265, 34.375], [-76.54, 34.248], [-76.776, 34.354], [-76.936, 34.358], [-77.521, 34.032], [-77.684, 33.615], [-77.95, 33.516], [-78.163, 33.577], [-78.569, 33.483], [-78.808, 33.309], [-78.931, 32.928], [-79.294, 32.69], [-79.725, 32.427], [-80.061, 32.203], [-80.21, 32.07], [-80.436, 31.966], [-80.764, 31.633], [-81.09, 30.74], [-80.989, 30.128], [-80.765, 29.498], [-80.349, 28.83], [-80.197, 28.552], [-80.271, 28.232], [-79.788, 27.148], [-79.7, 26.777], [-79.766, 26.228], [-79.812, 25.576], [-79.965, 25.158], [-80.143, 24.859], [-80.331, 24.705], [-80.635, 24.487], [-81.054, 24.361], [-81.782, 24.208], [-82.816, 24.169], [-83.288, 24.221], [-83.28, 24.513], [-83.238, 24.798], [-83.163, 25.012], [-82.313, 25.017], [-82.368, 25.134], [-82.51, 25.288], [-82.632, 25.453], [-81.934, 25.61], [-82.143, 26.09], [-82.324, 26.171], [-82.535, 26.48], [-82.719, 26.892], [-83.105, 27.532], [-83.07, 27.615], [-83.183, 27.781], [-83.185, 28.105], [-83.156, 28.373], [-83.014, 28.465], [-82.99, 28.551], [-83.026, 28.753], [-83.273, 28.827], [-83.421, 29.093], [-83.625, 29.29], [-83.895, 29.642], [-84.073, 29.73], [-84.171, 29.626], [-84.467, 29.438], [-85.018, 29.246], [-85.336, 29.335], [-85.675, 29.436], [-85.767, 29.696], [-85.985, 29.876], [-86.462, 30.068], [-87.771, 29.878], [-88.406, 29.863], [-88.432, 29.714], [-88.695, 29.394], [-88.581, 29.249], [-88.619, 29.022], [-88.937, 28.691], [-89.175, 28.63], [-89.399, 28.577], [-89.712, 28.693], [-89.828, 28.916], [-90.102, 28.755], [-90.54, 28.711], [-90.745, 28.711], [-91.083, 28.732], [-91.315, 28.893], [-91.556, 28.983], [-91.655, 29.121], [-91.742, 29.058], [-92.079, 29.114], [-92.164, 29.181], [-92.629, 29.233], [-93.243, 29.441], [-93.588, 29.43], [-93.777, 29.35], [-93.961, 29.348], [-94.266, 29.222], [-94.502, 29.062], [-94.9, 28.808], [-95.134, 28.597], [-95.489, 28.428], [-96.044, 28.182], [-96.147, 28.055], [-96.427, 27.94], [-96.796, 27.579], [-97.017, 27.081], [-96.876, 26.595], [-96.749, 25.948], [-97.075, 25.799], [-97.23, 25.659], [-97.68, 25.837], [-98.218, 25.934], [-98.509, 26.039], [-99.103, 26.254], [-99.357, 26.519], [-99.489, 26.804], [-99.612, 27.039], [-99.697, 27.291], [-99.724, 27.496], [-99.917, 27.637], [-100.23, 28.008], [-100.41, 28.265], [-100.596, 28.593], [-100.63162201336202, 28.649589400973838], [-100.63162201336202, 28.64958940097384], [-100.61, 28.66], [-99.41, 29.49], [-98.72, 30.24], [-98.14, 31.09], [-97.88, 32.24], [-97.29, 32.83], [-95.97, 33.36], [-93.76, 33.45], [-92.68, 33.96], [-91.98, 35.01], [-91.99, 35.84], [-92.19, 36.57], [-91.99, 37.17], [-91.4, 37.66], [-90.67, 37.83], [-89.74, 37.82], [-88.72, 37.69], [-87.59, 37.6], [-86.15, 37.65], [-85.28, 38.06], [-84.5, 38.65], [-83.39, 39.82], [-81.15526172143267, 42.44119677786845]]], [[[-108.987, 49.202], [-108.88015304459947, 49.20149570758513], [-112.93, 46.71], [-114.75, 45.42], [-116.41, 44.8], [-118.37, 44.32], [-119.37, 44.67], [-119.62, 45.4], [-119.22, 47.23], [-119.1, 48.24], [-119.31182901987798, 49.202859181263534], [-119.226, 49.203], [-117.702, 49.217], [-116.063, 49.223], [-114.53, 49.22], [-113.003, 49.227], [-111.288, 49.211], [-109.98, 49.207], [-109.426, 49.192], [-108.987, 49.202]]]]}, "properties": {"DN": 2, "VALID": "202409251200", "EXPIRE": "202409261200", "ISSUE": "202409250604", "LABEL": "TSTM", "LABEL2": "General Thunderstorms Risk", "stroke": "#55BB55", "fill": "#C1E9C1"}}, {"type": "Feature", "geometry": {"type": "MultiPolygon", "coordinates": [[[[-81.02413266673445, 30.34088308951955], [-80.989, 30.128], [-80.765, 29.498], [-80.349, 28.83], [-80.197, 28.552], [-80.271, 28.232], [-79.788, 27.148], [-79.7, 26.777], [-79.766, 26.228], [-79.812, 25.576], [-79.965, 25.158], [-80.143, 24.859], [-80.331, 24.705], [-80.635, 24.487], [-81.054, 24.361], [-81.782, 24.208], [-82.816, 24.169], [-83.288, 24.221], [-83.28, 24.513], [-83.238, 24.798], [-83.163, 25.012], [-82.313, 25.017], [-82.368, 25.134], [-82.51, 25.288], [-82.632, 25.453], [-81.934, 25.61], [-82.143, 26.09], [-82.324, 26.171], [-82.535, 26.48], [-82.719, 26.892], [-83.105, 27.532], [-83.07, 27.615], [-83.183, 27.781], [-83.185, 28.105], [-83.156, 28.373], [-83.014, 28.465], [-82.99, 28.551], [-83.026, 28.753], [-83.273, 28.827], [-83.421, 29.093], [-83.625, 29.29], [-83.895, 29.642], [-84.073, 29.73], [-84.171, 29.626], [-84.467, 29.438], [-85.018, 29.246], [-85.336, 29.335], [-85.675, 29.436], [-85.767, 29.696], [-85.985, 29.876], [-86.462, 30.068], [-87.771, 29.878], [-88.406, 29.863], [-88.432, 29.714], [-88.695, 29.394], [-88.581, 29.249], [-88.619, 29.022], [-88.937, 28.691], [-89.175, 28.63], [-89.399, 28.577], [-89.712, 28.693], [-89.828, 28.916], [-90.102, 28.755], [-90.54, 28.711], [-90.745, 28.711], [-91.083, 28.732], [-91.315, 28.893], [-91.556, 28.983], [-91.655, 29.121], [-91.742, 29.058], [-92.079, 29.114], [-92.164, 29.181], [-92.629, 29.233], [-93.243, 29.441], [-93.588, 29.43], [-93.777, 29.35], [-93.961, 29.348], [-94.266, 29.222], [-94.502, 29.062], [-94.9, 28.808], [-95.134, 28.597], [-95.489, 28.428], [-96.044, 28.182], [-96.147, 28.055], [-96.427, 27.94], [-96.796, 27.579], [-97.017, 27.081], [-96.95932754464775, 26.88221409006245], [-97.79, 26.94], [-98.17, 27.32], [-97.59, 28.78], [-95.57, 30.59], [-93.61, 31.52], [-89.27, 31.77], [-87.98, 31.91], [-86.98, 32.6], [-84.23, 35.63], [-81.71, 38.08], [-80.08, 37.8], [-80.19, 35.88], [-83.21, 32.26], [-84.4, 30.63], [-83.67, 30.29], [-82.47, 30.25], [-81.02413266673445, 30.34088308951955]]]]}, "properties": {"DN": 3, "VALID": "202409251200", "EXPIRE": "202409261200", "ISSUE": "202409250604", "LABEL": "MRGL", "LABEL2": "Marginal Risk", "stroke": "#005500", "fill": "#66A366"}}]}