{"type": "FeatureCollection", "features": [{"type": "Feature", "properties": {"dn": 1, "PRODUCT": "Day 2 Excessive Rainfall Potential Forecast", "VALID_TIME": "12Z 09/27/26 - 12Z 09/28/26", "OUTLOOK": "Marginal (At Least 5%)", "ISSUE_TIME": "2026-09-26 08:11:00", "START_TIME": "2026-09-27 12:00:00", "END_TIME": "2026-09-28 12:00:00", "Snippet": "12Z 09/27/26 - 12Z 09/28/26"}, "geometry": {"type": "Polygon", "coordinates": [[[-115.47704951462714, 32.80325402875996], [-116.19335462463629, 32.84739287329766], [-116.4327124531416, 32.95388243189623], [-116.69541604366579, 33.46806840754018], [-117.04143364617644, 33.83294726700607], [-117.08549397216345, 34.055559478243055], [-116.99477015182472, 34.160194058444056], [-116.78841063974905, 34.2336767145339], [-116.27830261933727, 34.16427763335785], [-115.7565566651687, 34.322935027842156], [-115.46579966241156, 34.54199609626595], [-114.49436015793005, 35.61456989492], [-113.88449863981515, 35.956920682587224], [-113.02121145778517, 36.142977941782924], [-110.75635603530998, 36.326606653930185], [-110.32734461204063, 36.45647911209112], [-109.96492763268546, 36.66917755845592], [-109.37077504608621, 37.259822939075335], [-107.97963611402443, 37.86403843355858], [-107.42372013097618, 37.94993907673221], [-107.07669123132565, 37.88540367026229], [-106.71427705287695, 37.68628260287013], [-106.52225196964783, 37.475782406723674], [-106.45589299943919, 36.85326666169424], [-107.00457374460417, 35.736307959676026], [-107.64349618355179, 35.01134039301125], [-108.62055305917274, 34.435827214191235], [-109.88730359432098, 34.053344024632445], [-111.82468288080373, 33.81905842806574], [-113.51878051534536, 33.13260575572559], [-115.47704951462714, 32.80325402875996]]]}}, {"type": "Feature", "properties": {"dn": 1, "PRODUCT": "Day 2 Excessive Rainfall Potential Forecast", "VALID_TIME": "12Z 09/27/26 - 12Z 09/28/26", "OUTLOOK": "Marginal (At Least 5%)", "ISSUE_TIME": "2026-09-26 08:11:00", "START_TIME": "2026-09-27 12:00:00", "END_TIME": "2026-09-28 12:00:00", "Snippet": "12Z 09/27/26 - 12Z 09/28/26"}, "geometry": {"type": "Polygon", "coordinates": [[[-69.81708007095752, 42.32653465722633], [-69.44305336651598, 41.91936207217273], [-69.55241479439489, 41.49044848315646], [-69.48148100216909, 41.30224108066546], [-69.60378002774304, 41.052290131318514], [-69.9775637217937, 40.89691470263725], [-70.3768770012669, 40.95278175752549], [-71.03589015795623, 40.909278873620366], [-72.80859393724711, 40.338379645752106], [-73.67298123944643, 40.20771864327401], [-73.81647979138202, 39.510902480819595], [-74.12171379232029, 39.14513458047651], [-74.70327736720743, 38.72152557532674], [-74.8057580934069, 38.19410609007743], [-75.31552724303825, 38.83722308672961], [-75.53926877718219, 39.48832169251254], [-75.41567840748455, 40.14299549608152], [-74.86091393391902, 41.190532388407924], [-74.66966935706807, 42.14060724003567], [-74.33945708380874, 42.58740228214264], [-73.81696058617916, 42.792131799567784], [-72.89426567754883, 42.902838548286105], [-72.00793192757281, 43.101557387970104], [-70.65065027412494, 43.717542082616404], [-69.81883465985806, 43.6502905910091], [-69.37283627091936, 43.501146914645844], [-69.32464264658024, 43.449586740932865], [-69.85825503310913, 43.25915466357398], [-70.08169260821971, 42.91207993191769], [-70.11035611667371, 42.985642493309776], [-71.56405233309063, 42.692900013394066], [-71.9936721632125, 42.39446205744653], [-72.2191218428553, 41.671474981324934], [-72.8040913023219, 41.435053760656146], [-73.55015788625674, 41.260062113699995], [-74.09143713202387, 40.924714635615416], [-74.58360027576413, 40.226545494355655], [-74.74354919136478, 39.71025102134149], [-74.67626405023583, 39.16622924265471], [-74.50179770583706, 38.876560205452755], [-73.8541674756455, 39.51548077910362], [-73.71091578430789, 40.212311786084356], [-73.57942472426011, 40.285189222268976], [-72.80232401321926, 40.367310191683515], [-71.02908676342167, 40.93805796810194], [-70.36988557871831, 40.9815287987522], [-69.97046407349346, 40.925654692482], [-69.6418281258076, 41.05772641344726], [-69.51961588273812, 41.307695778370416], [-69.59062411422764, 41.49588250517834], [-69.48141906355886, 41.92480590676998], [-69.85562155169015, 42.331886966300026], [-70.00171824972045, 42.70683225031103], [-69.81708007095752, 42.32653465722633]]]}}, {"type": "Feature", "properties": {"dn": 1, "PRODUCT": "Day 2 Excessive Rainfall Potential Forecast", "VALID_TIME": "12Z 09/27/26 - 12Z 09/28/26", "OUTLOOK": "Marginal (At Least 5%)", "ISSUE_TIME": "2026-09-26 08:11:00", "START_TIME": "2026-09-27 12:00:00", "END_TIME": "2026-09-28 12:00:00", "Snippet": "12Z 09/27/26 - 12Z 09/28/26"}, "geometry": {"type": "Polygon", "coordinates": [[[-102.16716895970202, 44.59304750273254], [-103.19951247065012, 44.68018086226418], [-104.31452500473821, 44.97223622214878], [-104.89793672254028, 45.32928150944152], [-105.12467421823719, 45.74465226477886], [-105.0234374013916, 46.51535169735962], [-104.45647137849626, 47.59852895338329], [-103.72214554157055, 48.385395475477395], [-102.72119753358116, 49.17478219961928], [-99.61715085507376, 49.142976536466], [-95.50672436238419, 49.15240911350793], [-95.44536366674684, 49.524275311148095], [-94.61862258430548, 49.52357724413703], [-94.61897962650511, 49.441079468356406], [-95.50380960748008, 48.861611442114], [-96.18931496938093, 48.27659856650509], [-97.69587628195376, 46.286390333401414], [-98.22821890812999, 45.72634559689425], [-98.64416482252754, 45.41992516639333], [-99.0598855714769, 45.19820118382392], [-100.13110066244978, 44.83028383120922], [-100.96710322618773, 44.67736422948232], [-102.16716895970202, 44.59304750273254]]]}}, {"type": "Feature", "properties": {"dn": 2, "PRODUCT": "Day 2 Excessive Rainfall Potential Forecast", "VALID_TIME": "12Z 09/27/26 - 12Z 09/28/26", "OUTLOOK": "Slight (At Least 15%)", "ISSUE_TIME": "2026-09-26 08:11:00", "START_TIME": "2026-09-27 12:00:00", "END_TIME": "2026-09-28 12:00:00", "Snippet": "12Z 09/27/26 - 12Z 09/28/26"}, "geometry": {"type": "Polygon", "coordinates": [[[-74.50179770583706, 38.876560205452755], [-74.67626405023583, 39.16622924265471], [-74.74354919136478, 39.71025102134149], [-74.58360027576413, 40.226545494355655], [-74.09143713202387, 40.924714635615416], [-73.55015788625674, 41.260062113699995], [-72.8040913023219, 41.435053760656146], [-72.2191218428553, 41.671474981324934], [-71.9936721632125, 42.39446205744653], [-71.56405233309063, 42.692900013394066], [-70.11035611667371, 42.985642493309776], [-69.85562155169015, 42.331886966300026], [-69.48141906355886, 41.92480590676998], [-69.59062411422764, 41.49588250517834], [-69.51961588273812, 41.307695778370416], [-69.6418281258076, 41.05772641344726], [-69.97046407349346, 40.925654692482], [-70.36988557871831, 40.9815287987522], [-71.02908676342167, 40.93805796810194], [-72.80232401321926, 40.367310191683515], [-73.57942472426011, 40.285189222268976], [-73.71091578430789, 40.212311786084356], [-73.8541674756455, 39.51548077910362], [-74.50179770583706, 38.876560205452755]]]}}]}