{"type": "FeatureCollection", "features": [{"type": "Feature", "geometry": {"type": "MultiPolygon", "coordinates": [[[[-102.18840331036513, 49.19303744413299], [-101.067, 49.197], [-99.664, 49.183], [-98.264, 49.18], [-96.747, 49.197], [-95.911, 49.174], [-95.453, 49.167], [-95.49, 49.561], [-94.579, 49.541], [-94.395, 48.962], [-93.805, 48.857], [-93.513, 48.786], [-93.223, 48.834], [-92.5, 48.697], [-91.94, 48.521], [-91.477, 48.338], [-90.777, 48.453], [-90.513, 48.262], [-90.011, 48.266], [-90.00645173267327, 48.265452351485145], [-91.66, 47.6], [-97.72, 40.63], [-99.06, 38.58], [-99.79, 37.07], [-99.56, 35.97], [-98.26, 34.58], [-95.14, 33.07], [-93.44, 32.18], [-91.74, 30.08], [-91.32894132282811, 28.898206303130834], [-91.556, 28.983], [-91.655, 29.121], [-91.742, 29.058], [-92.079, 29.114], [-92.164, 29.181], [-92.629, 29.233], [-93.243, 29.441], [-93.588, 29.43], [-93.777, 29.35], [-93.961, 29.348], [-94.266, 29.222], [-94.502, 29.062], [-94.9, 28.808], [-95.134, 28.597], [-95.489, 28.428], [-96.044, 28.182], [-96.147, 28.055], [-96.427, 27.94], [-96.796, 27.579], [-97.017, 27.081], [-96.876, 26.595], [-96.749, 25.948], [-97.075, 25.799], [-97.23, 25.659], [-97.68, 25.837], [-98.218, 25.934], [-98.509, 26.039], [-98.59041574162283, 26.0684686606884], [-97.5, 28.58], [-96.94, 29.22], [-96.46, 29.89], [-96.42, 30.31], [-96.69, 30.94], [-97.62, 31.28], [-98.82, 31.26], [-99.79, 30.94], [-100.52, 30.33], [-100.81, 29.73], [-101.03299218272872, 29.160985464761207], [-101.161, 29.268], [-101.45, 29.518], [-101.616, 29.594], [-101.852, 29.614], [-102.125, 29.651], [-102.3, 29.645], [-102.486, 29.578], [-102.613, 29.283], [-102.733, 29.098], [-102.962, 28.86], [-103.419, 28.868], [-104.191, 29.275], [-104.636, 29.554], [-104.879, 29.863], [-104.926, 30.211], [-105.115, 30.476], [-105.605, 30.822], [-106.064, 31.194], [-106.509, 31.409], [-106.568, 31.573], [-107.183, 31.602], [-107.745, 31.62], [-108.002, 31.623], [-108.044, 31.186], [-109.094, 31.123], [-109.962, 31.131], [-110.773, 31.148], [-111.169, 31.194], [-112.25, 31.509], [-113.701, 31.959], [-114.586, 32.219], [-115.006, 32.395], [-115.016, 32.542], [-115.20222423692958, 32.517948020550016], [-115.84, 33.65], [-117.33, 35.32], [-118.12, 36.32], [-117.84, 37.36], [-113.42, 42.08], [-102.18840331036513, 49.19303744413299]]], [[[-80.26853914067098, 28.242641553855204], [-80.271, 28.232], [-79.788, 27.148], [-79.7, 26.777], [-79.766, 26.228], [-79.812, 25.576], [-79.965, 25.158], [-80.143, 24.859], [-80.331, 24.705], [-80.635, 24.487], [-81.054, 24.361], [-81.782, 24.208], [-82.816, 24.169], [-83.288, 24.221], [-83.28, 24.513], [-83.238, 24.798], [-83.163, 25.012], [-82.313, 25.017], [-82.368, 25.134], [-82.51, 25.288], [-82.632, 25.453], [-81.934, 25.61], [-82.143, 26.09], [-82.324, 26.171], [-82.535, 26.48], [-82.719, 26.892], [-82.88866498740553, 27.173309823677577], [-82.88866498740553, 27.17330982367758], [-81.59, 27.74], [-80.26853914067098, 28.242641553855204]]]]}, "properties": {"DN": 2, "VALID": "202609281200", "EXPIRE": "202609291200", "ISSUE": "202609260716", "VALID_ISO": "2026-09-28T12:00:00+00:00", "EXPIRE_ISO": "2026-09-29T12:00:00+00:00", "ISSUE_ISO": "2026-09-26T07:16:00+00:00", "FORECASTER": "Squitieri", "LABEL": "TSTM", "LABEL2": "General Thunderstorms Risk", "stroke": "#55BB55", "fill": "#C1E9C1"}}]}