{"type": "FeatureCollection", "features": [{"type": "Feature", "properties": {"dn": 1, "PRODUCT": "Day 3 Excessive Rainfall Potential Forecast", "VALID_TIME": "12Z 09/28/26 - 12Z 09/29/26", "OUTLOOK": "Marginal (At Least 5%)", "ISSUE_TIME": "2026-09-26 08:11:00", "START_TIME": "2026-09-28 12:00:00", "END_TIME": "2026-09-29 12:00:00", "Snippet": "12Z 09/28/26 - 12Z 09/29/26"}, "geometry": {"type": "Polygon", "coordinates": [[[-104.64208958358151, 29.585567873281928], [-104.87761417462117, 29.890359737728467], [-104.90828457938767, 30.253446935923108], [-105.028860756658, 30.4282232571379], [-106.055277882567, 31.224775584563876], [-106.50210402882288, 31.421674705201944], [-106.57207952163469, 31.597888069269302], [-107.91275309104095, 31.63120323103416], [-108.0260104787706, 31.531674379305002], [-108.00051880194951, 31.305734801467175], [-108.07532152085008, 31.177599435261552], [-108.97266938754481, 31.100727661809906], [-110.73554955973741, 31.117486416569804], [-111.28118954581055, 31.199311046051452], [-114.38768258073324, 32.16099216884709], [-114.850323126095, 32.332944393135755], [-115.05679202879364, 32.581849836099614], [-115.26248801541307, 32.511000825434444], [-116.1146686796861, 34.458431384809664], [-116.26556464793428, 35.53165326027844], [-116.10979053169451, 36.4590163433046], [-115.74671015868589, 37.4984441958472], [-115.19993104790225, 38.50864710286863], [-114.82469319075777, 38.956413611169154], [-114.20470035923766, 39.339049312596444], [-112.88297139098533, 39.702295519969795], [-112.28660594356904, 39.939938074073034], [-111.83136012923319, 40.33812371996948], [-111.44909734849382, 40.861657625751654], [-110.95814424409973, 41.08278946072342], [-109.3402845769, 41.21948544052511], [-107.58071383471984, 41.17536121524229], [-106.3345201369009, 40.99452209102648], [-105.85299846242769, 40.84836854429109], [-105.41599347545213, 40.565271141062816], [-105.13786616356064, 40.0961221345037], [-104.96869081862279, 38.331868630414654], [-104.75458881372512, 37.85385178406845], [-104.01634825358549, 37.13501937378012], [-102.53851025094866, 36.042528893571834], [-102.17430241625691, 35.56446155575978], [-102.03835079972066, 35.16543879741117], [-102.00710363637513, 34.67125810565062], [-102.11932174776271, 33.85394391797042], [-102.69491507389849, 31.924421338358272], [-102.85252500307398, 31.098380446039208], [-102.79270637519672, 29.41536341017674], [-102.96863089913445, 28.90342939769026], [-103.43615605750442, 28.87863360121877], [-104.64208958358151, 29.585567873281928]], [[-108.07872992934661, 31.207737299743084], [-108.06133229003933, 31.528770695221137], [-107.96535586838947, 31.627827210575862], [-107.96320578499322, 32.08363755777518], [-107.83888635974459, 32.41232572983953], [-107.50503861104012, 32.80204309033749], [-107.0953676629413, 33.01505734510607], [-106.76837547371883, 32.993845538998166], [-105.7776614478264, 32.24559201726822], [-105.51066536148599, 32.263356192544954], [-105.31280769989026, 32.45842300861506], [-105.13485025570283, 32.87834081292814], [-104.78347094292423, 34.439226611382395], [-104.71364240715815, 34.894744512891776], [-104.76892811165405, 35.522330042953456], [-106.04775102064268, 37.238772249741594], [-106.66423949433829, 37.734843944768826], [-107.68512914001973, 38.2429036554406], [-108.2755121382829, 38.421490859854785], [-108.78263234588306, 38.38169969409164], [-109.26558002449143, 38.16370443933923], [-109.60262739227295, 38.13537773362752], [-109.91996729564892, 38.37581767683613], [-110.41653323946143, 39.04607520033267], [-110.77655341288498, 39.14788201390591], [-111.11631677790146, 39.116738769351365], [-111.87998928208462, 38.865723736362675], [-112.73031762192709, 38.4675719254365], [-113.39882079784894, 38.03863801415463], [-113.83197885905629, 37.5865295372994], [-114.00807906553288, 36.98129962676653], [-113.86291298666474, 35.50544364245879], [-114.03663741637399, 34.25869514127506], [-113.95303955562758, 33.76735203076368], [-113.74683929240568, 33.517793889872564], [-112.72796556767025, 32.94885196037559], [-112.53288031592767, 32.74210376701679], [-112.39689269918416, 32.208922681960715], [-112.40650659855758, 31.56736928494126], [-110.9566209730521, 31.171493167955166], [-108.97630849782487, 31.130850032815246], [-108.07872992934661, 31.207737299743084]]]}}, {"type": "Feature", "properties": {"dn": 1, "PRODUCT": "Day 3 Excessive Rainfall Potential Forecast", "VALID_TIME": "12Z 09/28/26 - 12Z 09/29/26", "OUTLOOK": "Marginal (At Least 5%)", "ISSUE_TIME": "2026-09-26 08:11:00", "START_TIME": "2026-09-28 12:00:00", "END_TIME": "2026-09-29 12:00:00", "Snippet": "12Z 09/28/26 - 12Z 09/29/26"}, "geometry": {"type": "Polygon", "coordinates": [[[-98.86967694340208, 38.88542529132131], [-99.72843289580786, 38.99716487342251], [-100.19240946834152, 39.161132140333976], [-101.08156087199286, 39.708331139567676], [-101.93896819252046, 40.51447235968403], [-102.38692334926442, 41.1116674538233], [-102.80870244435411, 42.056678904989944], [-102.92901251347877, 42.83535979962333], [-102.83736974520122, 43.92166734445667], [-102.52910311172595, 45.350954803548994], [-101.78722454989058, 47.70637939709971], [-101.51296002574493, 49.09118441544722], [-101.45465864873822, 49.17669016417017], [-100.82275467865033, 49.195404164394695], [-99.61715085507376, 49.142976536466], [-95.50672436238419, 49.15240911350793], [-95.44536366674684, 49.524275311148095], [-94.61988896219992, 49.52440426284683], [-94.37003183777543, 48.94502040391903], [-93.61563975877733, 48.77541400180068], [-93.11109855296515, 48.81290701903468], [-92.67239385498338, 48.725376907788096], [-91.55320745506403, 48.33429169877678], [-93.5140178176334, 47.227823139139886], [-94.07573873744937, 46.7678144555207], [-94.69401893608223, 46.050305450829796], [-95.06009253839541, 45.0282782426771], [-95.17599936695962, 42.266962967057225], [-95.29180212883159, 41.65645170307753], [-95.69335200542655, 40.56020035304754], [-96.09102076115786, 39.898039925230776], [-96.6580833104734, 39.363001477121095], [-97.28083912105046, 39.0905998276675], [-97.96092637690766, 38.947547056629666], [-98.86967694340208, 38.88542529132131]]]}}, {"type": "Feature", "properties": {"dn": 1, "PRODUCT": "Day 3 Excessive Rainfall Potential Forecast", "VALID_TIME": "12Z 09/28/26 - 12Z 09/29/26", "OUTLOOK": "Marginal (At Least 5%)", "ISSUE_TIME": "2026-09-26 08:11:00", "START_TIME": "2026-09-28 12:00:00", "END_TIME": "2026-09-29 12:00:00", "Snippet": "12Z 09/28/26 - 12Z 09/29/26"}, "geometry": {"type": "Polygon", "coordinates": [[[-70.72307693439745, 40.984995162698944], [-72.02776116058166, 41.46890130346532], [-72.39163122113166, 41.692360181193166], [-72.7776171650679, 42.09492774070329], [-72.99227200139556, 42.737935051108536], [-72.86742955775871, 43.29368985180051], [-72.4857744553435, 43.90410045913878], [-71.71293695618094, 44.59449906374881], [-70.87269254929673, 45.0118161338022], [-70.13057606857045, 45.26357616696617], [-69.4783912844009, 45.39440600543439], [-68.7519317334923, 45.339194487311104], [-67.8970537008055, 44.87036925583326], [-67.2626739805218, 44.29531603784244], [-67.29921538641231, 44.1690468673581], [-69.85825503310913, 43.25915466357398], [-70.13090977604622, 42.89982771004321], [-69.85485072207551, 42.33177992011856], [-69.480651749618, 41.92469703007804], [-69.58985992783097, 41.49577382473789], [-69.56231779786224, 41.13554721821157], [-69.97060606645945, 40.92507989268513], [-70.72307693439745, 40.984995162698944]]]}}, {"type": "Feature", "properties": {"dn": 2, "PRODUCT": "Day 3 Excessive Rainfall Potential Forecast", "VALID_TIME": "12Z 09/28/26 - 12Z 09/29/26", "OUTLOOK": "Slight (At Least 15%)", "ISSUE_TIME": "2026-09-26 08:11:00", "START_TIME": "2026-09-28 12:00:00", "END_TIME": "2026-09-29 12:00:00", "Snippet": "12Z 09/28/26 - 12Z 09/29/26"}, "geometry": {"type": "Polygon", "coordinates": [[[-108.97630849782487, 31.130850032815246], [-110.9566209730521, 31.171493167955166], [-112.40650659855758, 31.56736928494126], [-112.39689269918416, 32.208922681960715], [-112.53288031592767, 32.74210376701679], [-112.72796556767025, 32.94885196037559], [-113.74683929240568, 33.517793889872564], [-113.95303955562758, 33.76735203076368], [-114.03663741637399, 34.25869514127506], [-113.86291298666474, 35.50544364245879], [-114.00807906553288, 36.98129962676653], [-113.83197885905629, 37.5865295372994], [-113.39882079784894, 38.03863801415463], [-112.73031762192709, 38.4675719254365], [-111.87998928208462, 38.865723736362675], [-111.11631677790146, 39.116738769351365], [-110.77655341288498, 39.14788201390591], [-110.41653323946143, 39.04607520033267], [-109.91996729564892, 38.37581767683613], [-109.60262739227295, 38.13537773362752], [-109.26558002449143, 38.16370443933923], [-108.78263234588306, 38.38169969409164], [-108.2755121382829, 38.421490859854785], [-107.68512914001973, 38.2429036554406], [-106.66423949433829, 37.734843944768826], [-106.04775102064268, 37.238772249741594], [-104.76892811165405, 35.522330042953456], [-104.71364240715815, 34.894744512891776], [-104.78347094292423, 34.439226611382395], [-105.13485025570283, 32.87834081292814], [-105.31280769989026, 32.45842300861506], [-105.51066536148599, 32.263356192544954], [-105.7776614478264, 32.24559201726822], [-106.76837547371883, 32.993845538998166], [-107.0953676629413, 33.01505734510607], [-107.50503861104012, 32.80204309033749], [-107.83888635974459, 32.41232572983953], [-107.96320578499322, 32.08363755777518], [-107.96535586838947, 31.627827210575862], [-108.06133229003933, 31.528770695221137], [-108.07872992934661, 31.207737299743084], [-108.97630849782487, 31.130850032815246]]]}}]}