{"type": "FeatureCollection", "features": [{"type": "Feature", "properties": {"dn": 1, "PRODUCT": "Day 4 Excessive Rainfall Potential Forecast", "VALID_TIME": "12Z 09/29/26 - 12Z 09/30/26", "OUTLOOK": "Marginal (At Least 5%)", "ISSUE_TIME": "2026-09-26 08:13:00", "START_TIME": "2026-09-29 12:00:00", "END_TIME": "2026-09-30 12:00:00", "Snippet": "12Z 09/29/26 - 12Z 09/30/26"}, "geometry": {"type": "Polygon", "coordinates": [[[-106.53672111250663, 31.419156804310024], [-106.56911306512949, 31.56834619771564], [-107.96246091385268, 31.597367977657036], [-108.07532152085008, 31.177599435261552], [-108.97266938754481, 31.100727661809906], [-110.73554955973741, 31.117486416569804], [-111.28118954581055, 31.199311046051452], [-113.59418499192412, 31.935331360471654], [-113.80462751682181, 32.55204847000016], [-114.03180635423094, 32.93657173348259], [-114.82073679775206, 33.70907015082529], [-115.63279191135759, 34.83889499044558], [-115.89625478405793, 35.351532209323445], [-115.96059555682287, 35.97920066378644], [-115.79247932014563, 36.27230744688608], [-115.26205694091016, 36.74557085306614], [-114.11801290084425, 37.28532897336616], [-112.79190930359017, 37.47466969922363], [-112.10945168455154, 37.454894280054866], [-110.38695192116523, 37.664209478227086], [-109.47831101689685, 38.056936384875335], [-107.79176549303538, 39.126193171537054], [-106.86605228959527, 39.54658793127779], [-105.3510654208521, 39.90789431511025], [-103.41586954570158, 40.18722311812938], [-102.28097314460815, 40.45768621765862], [-101.32450672355694, 40.88979439436536], [-99.69586961160526, 42.076961708157626], [-95.77993581179851, 44.169986345617225], [-94.09586378782976, 44.81309123461994], [-93.30785260903694, 45.02167866096208], [-92.39643546358032, 45.1824223458386], [-91.36558765701865, 45.20841905884679], [-90.40506683576425, 45.01685858726336], [-89.40309090859837, 44.561591145333374], [-88.42976139127126, 43.79765080829147], [-88.0552033362029, 43.178618902379334], [-87.98886004000741, 42.43770154685078], [-88.34079257825876, 41.57808016605758], [-88.78919963440359, 40.93679141659018], [-89.40484119588201, 40.29770230268549], [-92.06414355116635, 38.061173793280375], [-93.04322228696662, 37.00559776525589], [-93.7275937089502, 35.84852844484793], [-94.83828573716781, 32.74375395639183], [-95.37311405510084, 31.791820370218947], [-96.06184007028028, 31.152308451972623], [-96.95679008607543, 30.734787006012446], [-98.73607032439268, 30.1566968877142], [-101.0773984424197, 29.627686554720466], [-101.38385829616261, 29.478654181207347], [-101.7599448220184, 29.645166296224176], [-102.33806625490003, 29.664618481651512], [-102.540464226531, 29.564651167053935], [-102.67353584704607, 29.193135991427127], [-102.96863089913445, 28.90342939769026], [-103.43615605750442, 28.87863360121877], [-104.64208958358151, 29.585567873281928], [-104.87761417462117, 29.890359737728467], [-104.90828457938767, 30.253446935923108], [-105.028860756658, 30.4282232571379], [-106.055277882567, 31.224775584563876], [-106.44236773165225, 31.381061917691834], [-106.09874939539296, 31.677651750268627], [-105.42432432223384, 31.905270976612215], [-104.6747915183159, 31.907047915090597], [-102.94689363878275, 31.684419633936805], [-101.77309306833493, 31.693257200601632], [-99.92025153054499, 32.03355163562413], [-99.18039058321399, 32.28133693761502], [-98.49378833386064, 32.61493160393693], [-98.124663114428, 32.89461260977194], [-97.75864820955124, 33.353563678954835], [-97.24023648221637, 34.48970673130221], [-96.54437794165702, 35.53212138351005], [-93.01263438472039, 38.69636659520148], [-90.89173721324626, 40.646086174932016], [-90.57806825216326, 41.20895109065504], [-90.54749259786735, 41.90773578065994], [-90.9292060659751, 42.61330355121739], [-91.62276232303401, 43.06158456366103], [-92.62376930158258, 43.33677401835108], [-93.69334931442354, 43.34734026542827], [-94.76361033903424, 43.135460017444665], [-96.53322217387517, 42.52201035249109], [-97.86854441516336, 41.80911304737279], [-98.49452626157739, 41.273110926250354], [-99.87770192442449, 39.745774486351834], [-100.64600510749558, 39.1041063826664], [-101.19982806418416, 38.819332991769194], [-102.09632058402357, 38.60745802978634], [-105.04725567924278, 38.55030362994366], [-105.54726534584444, 38.43151013682046], [-106.2529220100953, 38.11949457204789], [-107.76669695503824, 37.028939212270984], [-108.55646931558503, 36.60818502669949], [-109.36360164026141, 36.361200194994346], [-111.52926466463273, 35.890456548780804], [-112.20770744463009, 35.59552527936767], [-112.55509098353271, 35.33266541227282], [-112.85080771036148, 34.75617257142159], [-112.89828395843884, 34.02371542614638], [-112.66752603080754, 32.90988203585018], [-112.18907238486415, 31.54568725129753], [-110.9566209730521, 31.171493167955166], [-108.97630849782487, 31.130850032815246], [-108.07872992934661, 31.207737299743084], [-108.06133229003933, 31.528770695221137], [-107.96585227245663, 31.627482834813662], [-106.57214006156336, 31.59849096460713], [-106.44468772793824, 31.381998609039503], [-106.53672111250663, 31.419156804310024]]]}}, {"type": "Feature", "properties": {"dn": 2, "PRODUCT": "Day 4 Excessive Rainfall Potential Forecast", "VALID_TIME": "12Z 09/29/26 - 12Z 09/30/26", "OUTLOOK": "Slight (At Least 15%)", "ISSUE_TIME": "2026-09-26 08:13:00", "START_TIME": "2026-09-29 12:00:00", "END_TIME": "2026-09-30 12:00:00", "Snippet": "12Z 09/29/26 - 12Z 09/30/26"}, "geometry": {"type": "Polygon", "coordinates": [[[-108.97630849782487, 31.130850032815246], [-110.9566209730521, 31.171493167955166], [-112.18907238486415, 31.54568725129753], [-112.66752603080754, 32.90988203585018], [-112.89828395843884, 34.02371542614638], [-112.85080771036148, 34.75617257142159], [-112.55509098353271, 35.33266541227282], [-112.20770744463009, 35.59552527936767], [-111.52926466463273, 35.890456548780804], [-109.36360164026141, 36.361200194994346], [-108.55646931558503, 36.60818502669949], [-107.76669695503824, 37.028939212270984], [-106.2529220100953, 38.11949457204789], [-105.54726534584444, 38.43151013682046], [-105.04725567924278, 38.55030362994366], [-102.09632058402357, 38.60745802978634], [-101.19982806418416, 38.819332991769194], [-100.64600510749558, 39.1041063826664], [-99.87770192442449, 39.745774486351834], [-98.49452626157739, 41.273110926250354], [-97.86854441516336, 41.80911304737279], [-96.53322217387517, 42.52201035249109], [-94.76361033903424, 43.135460017444665], [-93.69334931442354, 43.34734026542827], [-92.62376930158258, 43.33677401835108], [-91.62276232303401, 43.06158456366103], [-90.9292060659751, 42.61330355121739], [-90.54749259786735, 41.90773578065994], [-90.57806825216326, 41.20895109065504], [-90.89173721324626, 40.646086174932016], [-93.01263438472039, 38.69636659520148], [-96.54437794165702, 35.53212138351005], [-97.24023648221637, 34.48970673130221], [-97.75864820955124, 33.353563678954835], [-98.124663114428, 32.89461260977194], [-98.49378833386064, 32.61493160393693], [-99.18039058321399, 32.28133693761502], [-99.92025153054499, 32.03355163562413], [-101.77309306833493, 31.693257200601632], [-102.94689363878275, 31.684419633936805], [-104.6747915183159, 31.907047915090597], [-105.42432432223384, 31.905270976612215], [-106.09874939539296, 31.677651750268627], [-106.44354040093472, 31.380049742992604], [-106.57214006156336, 31.59849096460713], [-107.96585227245663, 31.627482834813662], [-108.06133229003933, 31.528770695221137], [-108.07872992934661, 31.207737299743084], [-108.97630849782487, 31.130850032815246]]]}}]}