{"type": "FeatureCollection", "features": [{"type": "Feature", "properties": {"dn": 1, "PRODUCT": "Day 1 Excessive Rainfall Potential Forecast", "VALID_TIME": "12Z 09/26/26 - 12Z 09/27/26", "OUTLOOK": "Marginal (At Least 5%)", "ISSUE_TIME": "2026-09-26 08:11:00", "START_TIME": "2026-09-26 12:00:00", "END_TIME": "2026-09-27 12:00:00", "Snippet": "12Z 09/26/26 - 12Z 09/27/26"}, "geometry": {"type": "Polygon", "coordinates": [[[-104.11866826259094, 29.61619455988245], [-104.51480785661651, 29.958521066009155], [-104.61184843195328, 30.49990274676345], [-104.53626747139485, 30.869090592052444], [-104.35427021869721, 31.24428642190884], [-103.85812353438546, 31.728589619040292], [-102.2830313631719, 32.98697796732823], [-101.78237041634719, 33.642305720523254], [-101.08241270623685, 34.753049224741595], [-100.6814258889904, 35.4872687227958], [-99.14992940576889, 38.74685734423856], [-97.61982655187349, 41.200371474018105], [-97.12925144010472, 42.77620285281705], [-96.78643716592488, 43.429380625777846], [-96.43280675665558, 43.7354877793783], [-95.89820643964042, 43.997346753850934], [-94.15993321303435, 44.384593080614614], [-93.19978894776017, 44.33495788664789], [-92.30900169634327, 43.98027133315021], [-91.83921193062007, 43.670316930521956], [-91.49852376348008, 43.18877409500921], [-91.39567564507531, 42.75330012835248], [-91.44066418315062, 41.49062376538217], [-91.91920004728247, 39.167725788372955], [-92.28423354627769, 38.28702363302596], [-92.51875028929965, 37.93488713735967], [-93.37568695711346, 37.276009051258875], [-95.05644117884914, 36.56906582211915], [-96.7124356480225, 35.66424703771122], [-97.68749707582445, 34.9332515297401], [-98.05650797241637, 34.386430091539104], [-98.51783107115338, 33.42928807957649], [-99.08191148167741, 32.55623769938423], [-99.59318270740185, 31.907627874467035], [-100.05657270660015, 31.484085371488224], [-100.98518432300651, 30.906262699223277], [-102.4219128343491, 30.162101041730182], [-102.97483159553983, 29.770167279106534], [-103.27922813158631, 29.617451475360696], [-103.69391520326992, 29.549217512061094], [-104.11866826259094, 29.61619455988245]], [[-92.63388328494756, 40.41353892024245], [-92.45689609649159, 40.54342338009782], [-92.44819002425085, 40.89454676590628], [-92.66314466065967, 41.64163650645122], [-92.83278905227776, 41.90564191225482], [-93.4129241044259, 42.30412697405489], [-93.99883112305679, 42.525675595786396], [-94.76494744340499, 42.57169654009872], [-95.52990046996814, 42.26671648501584], [-96.28742870514063, 41.695790361435265], [-96.45838133544419, 41.388566847783196], [-96.45338149253362, 41.03833562255536], [-96.27637855762518, 40.863858521346124], [-95.57987843974664, 40.73582630864342], [-94.30620467084346, 40.69152071927057], [-93.15337658156902, 40.419684463582314], [-92.63388328494756, 40.41353892024245]]]}}, {"type": "Feature", "properties": {"dn": 1, "PRODUCT": "Day 1 Excessive Rainfall Potential Forecast", "VALID_TIME": "12Z 09/26/26 - 12Z 09/27/26", "OUTLOOK": "Marginal (At Least 5%)", "ISSUE_TIME": "2026-09-26 08:11:00", "START_TIME": "2026-09-26 12:00:00", "END_TIME": "2026-09-27 12:00:00", "Snippet": "12Z 09/26/26 - 12Z 09/27/26"}, "geometry": {"type": "Polygon", "coordinates": [[[-75.65391651701266, 38.24796206465337], [-75.74176344350919, 38.70615325440078], [-75.55499058744458, 39.71310475557714], [-75.0209747611219, 40.67656819432088], [-74.50713851247184, 41.194620804971855], [-72.32367050799678, 42.25944209219868], [-72.08057694857015, 42.53772414019092], [-71.93261660742553, 42.915399517498294], [-71.30388656064684, 43.27584407601085], [-70.65590444425996, 43.45499394296676], [-69.77887723520085, 43.33718702934027], [-70.10930004617522, 42.9850581797129], [-69.81708007095752, 42.32653465722633], [-69.44305336651598, 41.91936207217273], [-69.55241479439489, 41.49044848315646], [-69.48148100216909, 41.30224108066546], [-69.60378002774304, 41.052290131318514], [-69.9775637217937, 40.89691470263725], [-70.3768770012669, 40.95278175752549], [-71.03589015795623, 40.909278873620366], [-72.80859393724711, 40.338379645752106], [-73.67298123944643, 40.20771864327401], [-73.81647979138202, 39.510902480819595], [-74.12171379232029, 39.14513458047651], [-74.66658562418245, 38.71720153763917], [-74.76795827691085, 38.19054029683805], [-75.06332677612373, 37.73060143840943], [-75.32803070455708, 37.53544040470344], [-75.65391651701266, 38.24796206465337]], [[-74.70402617828958, 38.72161382099384], [-74.15928346740964, 39.149655283597085], [-73.8541674756455, 39.51548077910362], [-73.71091578430789, 40.212311786084356], [-73.57942472426011, 40.285189222268976], [-72.80232401321926, 40.367310191683515], [-71.02908676342167, 40.93805796810194], [-70.36988557871831, 40.9815287987522], [-69.97046407349346, 40.925654692482], [-69.6418281258076, 41.05772641344726], [-69.51961588273812, 41.307695778370416], [-69.59062411422764, 41.49588250517834], [-69.48141906355886, 41.92480590676998], [-69.85562155169015, 42.331886966300026], [-70.1211652314484, 42.94303326534766], [-70.52874530906115, 42.99791978904801], [-70.9098851629377, 42.91628754163703], [-71.60529950649364, 42.52140441880079], [-72.35381814195686, 41.59990239291272], [-73.56849028840324, 41.17359341519718], [-74.17540697575342, 40.8013985984791], [-74.47447409104134, 40.48082153019615], [-74.9136750143383, 39.72986558751003], [-75.05662392095482, 38.98664834016577], [-74.97150482975925, 38.52869492638814], [-74.80567422050711, 38.19454556290146], [-74.70402617828958, 38.72161382099384]]]}}, {"type": "Feature", "properties": {"dn": 2, "PRODUCT": "Day 1 Excessive Rainfall Potential Forecast", "VALID_TIME": "12Z 09/26/26 - 12Z 09/27/26", "OUTLOOK": "Slight (At Least 15%)", "ISSUE_TIME": "2026-09-26 08:11:00", "START_TIME": "2026-09-26 12:00:00", "END_TIME": "2026-09-27 12:00:00", "Snippet": "12Z 09/26/26 - 12Z 09/27/26"}, "geometry": {"type": "Polygon", "coordinates": [[[-74.80567422050711, 38.19454556290146], [-74.97150482975925, 38.52869492638814], [-75.05662392095482, 38.98664834016577], [-74.9136750143383, 39.72986558751003], [-74.47447409104134, 40.48082153019615], [-74.17540697575342, 40.8013985984791], [-73.56849028840324, 41.17359341519718], [-72.35381814195686, 41.59990239291272], [-71.60529950649364, 42.52140441880079], [-70.9098851629377, 42.91628754163703], [-70.52874530906115, 42.99791978904801], [-70.1211652314484, 42.94303326534766], [-69.85562155169015, 42.331886966300026], [-69.48141906355886, 41.92480590676998], [-69.59062411422764, 41.49588250517834], [-69.51961588273812, 41.307695778370416], [-69.6418281258076, 41.05772641344726], [-69.97046407349346, 40.925654692482], [-70.36988557871831, 40.9815287987522], [-71.02908676342167, 40.93805796810194], [-72.80232401321926, 40.367310191683515], [-73.57942472426011, 40.285189222268976], [-73.71091578430789, 40.212311786084356], [-73.8541674756455, 39.51548077910362], [-74.15928346740964, 39.149655283597085], [-74.70402617828958, 38.72161382099384], [-74.80567422050711, 38.19454556290146]]]}}, {"type": "Feature", "properties": {"dn": 2, "PRODUCT": "Day 1 Excessive Rainfall Potential Forecast", "VALID_TIME": "12Z 09/26/26 - 12Z 09/27/26", "OUTLOOK": "Slight (At Least 15%)", "ISSUE_TIME": "2026-09-26 08:11:00", "START_TIME": "2026-09-26 12:00:00", "END_TIME": "2026-09-27 12:00:00", "Snippet": "12Z 09/26/26 - 12Z 09/27/26"}, "geometry": {"type": "Polygon", "coordinates": [[[-93.15337658156902, 40.419684463582314], [-94.30620467084346, 40.69152071927057], [-95.57987843974664, 40.73582630864342], [-96.27637855762518, 40.863858521346124], [-96.45338149253362, 41.03833562255536], [-96.45838133544419, 41.388566847783196], [-96.28742870514063, 41.695790361435265], [-95.52990046996814, 42.26671648501584], [-94.76494744340499, 42.57169654009872], [-93.99883112305679, 42.525675595786396], [-93.4129241044259, 42.30412697405489], [-92.83278905227776, 41.90564191225482], [-92.66314466065967, 41.64163650645122], [-92.44819002425085, 40.89454676590628], [-92.45689609649159, 40.54342338009782], [-92.63388328494756, 40.41353892024245], [-93.15337658156902, 40.419684463582314]]]}}]}