{"type": "FeatureCollection", "features": [{"type": "Feature", "properties": {"dn": 1, "PRODUCT": "Day 5 Excessive Rainfall Potential Forecast", "VALID_TIME": "12Z 09/30/26 - 12Z 10/01/26", "OUTLOOK": "Marginal (At Least 5%)", "ISSUE_TIME": "2026-09-26 08:13:00", "START_TIME": "2026-09-30 12:00:00", "END_TIME": "2026-10-01 12:00:00", "Snippet": "12Z 09/30/26 - 12Z 10/01/26"}, "geometry": {"type": "Polygon", "coordinates": [[[-97.74194273594556, 25.888736343436992], [-98.14909531772862, 25.92647175917468], [-99.02246103525674, 26.22559474752472], [-99.28593535644875, 26.447758383796], [-99.61603427988923, 27.07775546575369], [-99.68320292614735, 27.486816625138623], [-100.33027817840626, 28.15062950457799], [-100.89421356313895, 29.08846319137612], [-101.49335118859003, 29.56531773165455], [-102.0241837393526, 29.679077841975136], [-102.49208393197327, 29.611684267347027], [-102.67353584704607, 29.193135991427127], [-102.96863089913445, 28.90342939769026], [-103.43615605750442, 28.87863360121877], [-104.64208958358151, 29.585567873281928], [-104.87761417462117, 29.890359737728467], [-104.97627747674895, 30.431574507180816], [-104.83763191911956, 30.668278383219185], [-104.67961860674323, 31.3157786569462], [-104.80558393884424, 32.17224975632846], [-105.16997845284477, 32.64918652076854], [-107.26717350510852, 34.091014291679784], [-107.7077340681934, 34.600504206176964], [-108.15087532660004, 35.55949620859272], [-108.34199059983692, 36.22013284860671], [-108.36874661028487, 36.89223666857201], [-108.26204441354295, 37.393918688300985], [-107.93530235918145, 37.95588439503797], [-107.48076280181962, 38.43666476241893], [-106.25755423668579, 39.23195500035928], [-103.77939260914202, 40.39004134498351], [-100.2639658052343, 41.71227079088723], [-93.80168915670082, 44.21079592350904], [-92.47504165432439, 44.498448755443434], [-90.78644086527063, 44.597257634821275], [-88.81296347917545, 44.37144537807069], [-87.34107882043705, 43.97301770226299], [-86.3606564339055, 43.54161838141691], [-85.69162087215385, 43.031673619291325], [-85.53500332461718, 42.80645301152256], [-85.40412676396473, 42.32060937032317], [-85.46614302534522, 41.66840149480765], [-85.71307780879876, 40.891629984000325], [-86.60912354859985, 39.17057543593256], [-87.29392617556097, 38.403176203608965], [-89.07048974376045, 37.047339128668035], [-90.47709663830459, 35.52277876429713], [-90.66185419813455, 35.03317901542125], [-92.71127630435909, 31.50353773318138], [-92.93465809068122, 30.91612780874882], [-93.05723895681827, 29.917003747083317], [-93.22091705489268, 29.50912943502433], [-93.95557214162247, 29.378224519021607], [-94.26995427925398, 29.24334244579901], [-95.20831027943626, 28.561200309284196], [-95.98412972350866, 28.2389437172858], [-96.54768263467437, 27.87021159181288], [-96.85231101677168, 27.547345142825293], [-97.0503436434672, 27.08825736472549], [-96.88941797420924, 26.633653415681245], [-96.77723624327665, 25.949801960648816], [-97.03061492512109, 25.854312576223087], [-97.23023106743004, 25.668726873049444], [-97.74194273594556, 25.888736343436992]], [[-98.24014673754331, 29.34843839667525], [-97.56505099195938, 29.543266480287905], [-95.63319404340737, 30.382346237752138], [-95.10642978198163, 30.701886443095905], [-94.52250606551574, 31.20147459157648], [-94.14729835591497, 31.699243212771172], [-93.7664063597561, 32.42213777908373], [-93.15002947473397, 34.04375885000565], [-92.56787880909353, 35.79082467261624], [-92.4343225567552, 36.77407323030559], [-92.19510210202218, 37.39537101217807], [-91.07442922317463, 38.88506044751113], [-90.46398908328011, 39.84315879376871], [-90.48696119457311, 40.63631697336277], [-91.04554038005186, 41.17645232350592], [-91.62113609450196, 41.36329192217266], [-92.66974589573925, 41.379863364987806], [-94.82662985330161, 41.00073907367055], [-96.79203571534244, 40.50904272491454], [-98.50696616163631, 39.95523058403699], [-99.63413095362988, 39.44356661379614], [-100.07475777581205, 39.07691247234225], [-100.33036086043815, 38.492702927253546], [-100.30816732957601, 38.04884368654491], [-100.24303634081257, 37.87278928251537], [-99.95060940812692, 37.658299048148386], [-99.4972397353361, 37.58167561922251], [-98.82315930798494, 37.59807138922578], [-97.87146910487449, 37.750315129953606], [-96.80215924504708, 37.76488850115712], [-96.51750647644613, 37.50082760484842], [-96.34017044679455, 36.788213362896286], [-96.3352240779932, 36.38570234642725], [-96.49155039322744, 35.62238460603095], [-96.97057906034159, 34.6282818547263], [-97.44896380277397, 33.990771587655566], [-99.3830114238042, 31.958907527681077], [-99.93337165124831, 31.07991469838096], [-99.95534544463342, 30.351423244322188], [-99.66845314022288, 29.76826619622326], [-99.23556877607511, 29.415659864473923], [-98.81313332319687, 29.289866996708547], [-98.24014673754331, 29.34843839667525]]]}}, {"type": "Feature", "properties": {"dn": 2, "PRODUCT": "Day 5 Excessive Rainfall Potential Forecast", "VALID_TIME": "12Z 09/30/26 - 12Z 10/01/26", "OUTLOOK": "Slight (At Least 15%)", "ISSUE_TIME": "2026-09-26 08:13:00", "START_TIME": "2026-09-30 12:00:00", "END_TIME": "2026-10-01 12:00:00", "Snippet": "12Z 09/30/26 - 12Z 10/01/26"}, "geometry": {"type": "Polygon", "coordinates": [[[-98.81313332319687, 29.289866996708547], [-99.23556877607511, 29.415659864473923], [-99.66845314022288, 29.76826619622326], [-99.95534544463342, 30.351423244322188], [-99.93337165124831, 31.07991469838096], [-99.3830114238042, 31.958907527681077], [-97.44896380277397, 33.990771587655566], [-96.97057906034159, 34.6282818547263], [-96.49155039322744, 35.62238460603095], [-96.3352240779932, 36.38570234642725], [-96.34017044679455, 36.788213362896286], [-96.51750647644613, 37.50082760484842], [-96.80215924504708, 37.76488850115712], [-97.87146910487449, 37.750315129953606], [-98.82315930798494, 37.59807138922578], [-99.4972397353361, 37.58167561922251], [-99.95060940812692, 37.658299048148386], [-100.24303634081257, 37.87278928251537], [-100.30816732957601, 38.04884368654491], [-100.33036086043815, 38.492702927253546], [-100.07475777581205, 39.07691247234225], [-99.63413095362988, 39.44356661379614], [-98.50696616163631, 39.95523058403699], [-96.79203571534244, 40.50904272491454], [-94.82662985330161, 41.00073907367055], [-92.66974589573925, 41.379863364987806], [-91.62113609450196, 41.36329192217266], [-91.04554038005186, 41.17645232350592], [-90.48696119457311, 40.63631697336277], [-90.46398908328011, 39.84315879376871], [-91.07442922317463, 38.88506044751113], [-92.19510210202218, 37.39537101217807], [-92.4343225567552, 36.77407323030559], [-92.56787880909353, 35.79082467261624], [-93.15002947473397, 34.04375885000565], [-93.7664063597561, 32.42213777908373], [-94.14729835591497, 31.699243212771172], [-94.52250606551574, 31.20147459157648], [-95.10642978198163, 30.701886443095905], [-95.63319404340737, 30.382346237752138], [-97.56505099195938, 29.543266480287905], [-98.24014673754331, 29.34843839667525], [-98.81313332319687, 29.289866996708547]]]}}]}